{
"type": "FeatureCollection",
"name": "dc_ev_coverage_final",
"crs": { "type": "name", "properties": { "name": "urn:ogc:def:crs:EPSG::26918" } },
"features": [
{ "type": "Feature", "properties": { "station_name": "One Parking", "street_address": "555 12th St NW", "city": "Washington", "state": "DC", "zip": "20004", "latitude": 38.896703, "longitude": -77.027621, "ev_network": "Non-Networked", "ev_level1_evse_num": 1.0, "ev_level2_evse_num": 13.0, "ev_dc_fast_num": 8.0, "access_code": "public", "facility_type": "PAY_GARAGE" }, "geometry": { "type": "MultiPolygon", "coordinates": [ [ [ [ 322439.57863284816267, 4306227.318516378290951 ], [ 322361.164920584531501, 4306223.466297715902328 ], [ 322282.751208320900332, 4306227.318516378290951 ], [ 322205.092662971641403, 4306238.838073393329978 ], [ 322128.937178780965041, 4306257.914029129780829 ], [ 322055.018174692464527, 4306284.362671706825495 ], [ 321984.047531123738736, 4306317.929286236874759 ], [ 321916.708734168845695, 4306358.290607874281704 ], [ 321853.650293253595009, 4306405.057935025542974 ], [ 321795.479495635314379, 4306457.780872766859829 ], [ 321742.75655789434677, 4306515.951670384965837 ], [ 321695.989230742503423, 4306579.01011130027473 ], [ 321655.627909105853178, 4306646.348908254876733 ], [ 321649.970088764093816, 4306658.311364298686385 ], [ 321617.059653114003595, 4306663.193166270852089 ], [ 321540.904168923327234, 4306682.26912200730294 ], [ 321466.985164834826719, 4306708.717764584347606 ], [ 321396.014521266100928, 4306742.28437911439687 ], [ 321328.675724311207887, 4306782.645700751803815 ], [ 321265.617283395957202, 4306829.413027903065085 ], [ 321207.446485777676571, 4306882.13596564438194 ], [ 321154.723548036708962, 4306940.306763262487948 ], [ 321107.956220884865616, 4307003.365204177796841 ], [ 321067.59489924821537, 4307070.704001132398844 ], [ 321034.028284717875067, 4307141.674644701182842 ], [ 321018.385558728536125, 4307185.393135093152523 ], [ 321012.537429363932461, 4307188.159094287082553 ], [ 320945.198632409039419, 4307228.520415924489498 ], [ 320882.140191493788734, 4307275.287743075750768 ], [ 320823.969393875508104, 4307328.010680817067623 ], [ 320771.246456134540495, 4307386.181478435173631 ], [ 320741.985268061398529, 4307425.635623275302351 ], [ 320694.49273051036289, 4307460.858489693142474 ], [ 320636.321932892082259, 4307513.581427434459329 ], [ 320583.59899515111465, 4307571.752225052565336 ], [ 320561.073234623880126, 4307602.124697156250477 ], [ 320513.196368508390151, 4307654.948678685352206 ], [ 320466.429041356546804, 4307718.007119600661099 ], [ 320426.067719719896559, 4307785.345916555263102 ], [ 320392.501105189556256, 4307856.316560124047101 ], [ 320366.052462612802628, 4307930.235564212314785 ], [ 320363.814205116301309, 4307939.171189024113119 ], [ 320357.87993102526525, 4307951.718157410621643 ], [ 320331.431288448511623, 4308025.637161498889327 ], [ 320312.355332711711526, 4308101.79264569003135 ], [ 320300.835775696497876, 4308179.451191038824618 ], [ 320296.983557034283876, 4308257.86490330286324 ], [ 320300.835775696497876, 4308336.278615566901863 ], [ 320312.355332711711526, 4308413.937160915695131 ], [ 320331.431288448511623, 4308490.092645106837153 ], [ 320357.87993102526525, 4308564.011649195104837 ], [ 320391.446545555605553, 4308634.982292763888836 ], [ 320431.807867192255799, 4308702.321089718490839 ], [ 320459.274806148838252, 4308739.355969682335854 ], [ 320439.258157502219547, 4308746.518041090108454 ], [ 320368.287513933493756, 4308780.084655620157719 ], [ 320300.948716978600714, 4308820.445977257564664 ], [ 320237.890276063350029, 4308867.213304408825934 ], [ 320179.719478445069399, 4308919.936242150142789 ], [ 320126.99654070410179, 4308978.107039768248796 ], [ 320080.229213552258443, 4309041.165480683557689 ], [ 320039.867891915608197, 4309108.504277638159692 ], [ 320006.301277385267895, 4309179.474921206943691 ], [ 319979.852634808514267, 4309253.393925295211375 ], [ 319960.77667907171417, 4309329.549409486353397 ], [ 319949.257122056500521, 4309407.207954835146666 ], [ 319945.404903394286521, 4309485.621667099185288 ], [ 319949.257122056500521, 4309564.03537936322391 ], [ 319954.156095612852369, 4309597.061576428823173 ], [ 319928.917346749920398, 4309608.998615628108382 ], [ 319861.578549795027357, 4309649.359937265515327 ], [ 319798.520108879776672, 4309696.127264416776597 ], [ 319740.349311261496041, 4309748.850202158093452 ], [ 319687.626373520528432, 4309807.02099977619946 ], [ 319640.859046368685085, 4309870.079440691508353 ], [ 319600.49772473203484, 4309937.418237646110356 ], [ 319586.884389844082762, 4309966.201215960085392 ], [ 319581.488561239617411, 4309944.659860672429204 ], [ 319555.039918662863784, 4309870.74085658416152 ], [ 319521.473304132523481, 4309799.770213015377522 ], [ 319481.111982495873235, 4309732.431416060775518 ], [ 319434.344655344029889, 4309669.372975145466626 ], [ 319381.62171760306228, 4309611.202177527360618 ], [ 319323.450919984781649, 4309558.479239786043763 ], [ 319260.392479069530964, 4309511.711912634782493 ], [ 319193.053682114637922, 4309471.350590997375548 ], [ 319122.083038545912132, 4309437.783976467326283 ], [ 319048.164034457411617, 4309411.335333890281618 ], [ 319027.896500492293853, 4309406.258580916561186 ], [ 319015.832222227589227, 4309380.750807654112577 ], [ 318975.470900590938982, 4309313.412010699510574 ], [ 318928.703573439095635, 4309250.353569784201682 ], [ 318875.980635698128026, 4309192.182772166095674 ], [ 318817.809838079847395, 4309139.459834424778819 ], [ 318754.75139716459671, 4309092.692507273517549 ], [ 318687.412600209703669, 4309052.331185636110604 ], [ 318616.441956640977878, 4309018.764571106061339 ], [ 318542.522952552477363, 4308992.315928529016674 ], [ 318466.367468361801002, 4308973.239972792565823 ], [ 318388.708923012542073, 4308961.720415777526796 ], [ 318310.295210748910904, 4308957.868197115138173 ], [ 318231.881498485279735, 4308961.720415777526796 ], [ 318154.222953136020806, 4308973.239972792565823 ], [ 318078.067468945344444, 4308992.315928529016674 ], [ 318004.14846485684393, 4309018.764571106061339 ], [ 317933.177821288118139, 4309052.331185636110604 ], [ 317865.839024333225098, 4309092.692507273517549 ], [ 317802.780583417974412, 4309139.459834424778819 ], [ 317744.609785799693782, 4309192.182772166095674 ], [ 317691.886848058726173, 4309250.353569784201682 ], [ 317645.119520906882826, 4309313.412010699510574 ], [ 317604.758199270232581, 4309380.750807654112577 ], [ 317571.191584739892278, 4309451.721451222896576 ], [ 317544.74294216313865, 4309525.64045531116426 ], [ 317525.666986426338553, 4309601.795939502306283 ], [ 317514.147429411124904, 4309679.454484851099551 ], [ 317510.295210748910904, 4309757.868197115138173 ], [ 317514.147429411124904, 4309836.281909379176795 ], [ 317525.666986426338553, 4309913.940454727970064 ], [ 317544.74294216313865, 4309990.095938919112086 ], [ 317571.191584739892278, 4310064.01494300737977 ], [ 317604.758199270232581, 4310134.985586576163769 ], [ 317645.119520906882826, 4310202.324383530765772 ], [ 317691.886848058726173, 4310265.382824446074665 ], [ 317744.609785799693782, 4310323.553622064180672 ], [ 317802.780583417974412, 4310376.276559805497527 ], [ 317865.839024333225098, 4310423.043886956758797 ], [ 317933.177821288118139, 4310463.405208594165742 ], [ 318004.14846485684393, 4310496.971823124215007 ], [ 318078.067468945344444, 4310523.420465701259673 ], [ 318098.335002910462208, 4310528.497218674980104 ], [ 318110.399281175166834, 4310554.004991937428713 ], [ 318150.76060281181708, 4310621.343788892030716 ], [ 318197.527929963660426, 4310684.402229807339609 ], [ 318250.250867704628035, 4310742.573027425445616 ], [ 318308.421665322908666, 4310795.295965166762471 ], [ 318371.480106238159351, 4310842.063292318023741 ], [ 318438.818903193052392, 4310882.424613955430686 ], [ 318509.789546761778183, 4310915.991228485479951 ], [ 318583.708550850278698, 4310942.439871062524617 ], [ 318659.864035040955059, 4310961.515826798975468 ], [ 318737.522580390213989, 4310973.035383814014494 ], [ 318815.936292653845157, 4310976.887602476403117 ], [ 318894.350004917476326, 4310973.035383814014494 ], [ 318928.338774463860318, 4310967.993626118637621 ], [ 318888.691954579844605, 4311021.451174397952855 ], [ 318848.33063294319436, 4311088.789971352554858 ], [ 318831.792237744433805, 4311123.757470079697669 ], [ 318803.881784186640289, 4311161.390360256657004 ], [ 318763.520462549990043, 4311228.729157211259007 ], [ 318729.95384801964974, 4311299.699800780043006 ], [ 318703.505205442896113, 4311373.61880486831069 ], [ 318684.429249706096016, 4311449.774289059452713 ], [ 318676.705864017771091, 4311501.84112608525902 ], [ 318658.739898833387997, 4311518.124527769163251 ], [ 318606.016961092420388, 4311576.295325387269258 ], [ 318559.249633940577041, 4311639.353766302578151 ], [ 318518.888312303926796, 4311706.692563257180154 ], [ 318485.321697773586493, 4311777.663206825964153 ], [ 318458.873055196832865, 4311851.582210914231837 ], [ 318439.797099460032769, 4311927.737695105373859 ], [ 318428.277542444819119, 4312005.396240454167128 ], [ 318424.425323782605119, 4312083.80995271820575 ], [ 318428.277542444819119, 4312162.223664982244372 ], [ 318439.797099460032769, 4312239.882210331037641 ], [ 318458.873055196832865, 4312316.037694522179663 ], [ 318485.321697773586493, 4312389.956698610447347 ], [ 318518.888312303926796, 4312460.927342179231346 ], [ 318559.249633940577041, 4312528.266139133833349 ], [ 318606.016961092420388, 4312591.324580049142241 ], [ 318658.739898833387997, 4312649.495377667248249 ], [ 318716.910696451668628, 4312702.218315408565104 ], [ 318779.969137366919313, 4312748.985642559826374 ], [ 318847.307934321812354, 4312789.346964197233319 ], [ 318904.033419691026211, 4312816.176120672374964 ], [ 318906.670215273683425, 4312869.849327788688242 ], [ 318918.189772288897075, 4312947.507873137481511 ], [ 318937.265728025697172, 4313023.663357328623533 ], [ 318963.714370602450799, 4313097.582361416891217 ], [ 318997.280985132791102, 4313168.553004985675216 ], [ 319037.642306769441348, 4313235.891801940277219 ], [ 319084.409633921284694, 4313298.950242855586112 ], [ 319137.132571662252303, 4313357.121040473692119 ], [ 319195.303369280532934, 4313409.843978215008974 ], [ 319258.361810195783619, 4313456.611305366270244 ], [ 319325.70060715067666, 4313496.972627003677189 ], [ 319396.671250719402451, 4313530.539241533726454 ], [ 319470.590254807902966, 4313556.98788411077112 ], [ 319546.745738998579327, 4313576.063839847221971 ], [ 319624.404284347838257, 4313587.583396862260997 ], [ 319702.817996611469425, 4313591.43561552464962 ], [ 319781.231708875100594, 4313587.583396862260997 ], [ 319858.890254224359524, 4313576.063839847221971 ], [ 319935.045738415035885, 4313556.98788411077112 ], [ 320008.964742503536399, 4313530.539241533726454 ], [ 320030.951457218965515, 4313520.140299935825169 ], [ 320030.419803322525695, 4313530.962363612838089 ], [ 320034.272021984739695, 4313609.376075876876712 ], [ 320045.791578999953344, 4313687.03462122566998 ], [ 320064.867534736753441, 4313763.190105416812003 ], [ 320091.316177313507069, 4313837.109109505079687 ], [ 320124.882791843847372, 4313908.079753073863685 ], [ 320165.244113480497617, 4313975.418550028465688 ], [ 320212.011440632340964, 4314038.476990943774581 ], [ 320264.734378373308573, 4314096.647788561880589 ], [ 320322.905175991589203, 4314149.370726303197443 ], [ 320385.963616906839889, 4314196.138053454458714 ], [ 320453.30241386173293, 4314236.499375091865659 ], [ 320524.273057430458721, 4314270.065989621914923 ], [ 320598.192061518959235, 4314296.514632198959589 ], [ 320674.347545709635597, 4314315.59058793541044 ], [ 320752.006091058894526, 4314327.110144950449467 ], [ 320830.419803322525695, 4314330.962363612838089 ], [ 320908.833515586156864, 4314327.110144950449467 ], [ 320986.492060935415793, 4314315.59058793541044 ], [ 321062.647545126092155, 4314296.514632198959589 ], [ 321136.566549214592669, 4314270.065989621914923 ], [ 321207.53719278331846, 4314236.499375091865659 ], [ 321274.875989738211501, 4314196.138053454458714 ], [ 321337.934430653462186, 4314149.370726303197443 ], [ 321396.105228271742817, 4314096.647788561880589 ], [ 321448.828166012710426, 4314038.476990943774581 ], [ 321495.595493164553773, 4313975.418550028465688 ], [ 321535.956814801204018, 4313908.079753073863685 ], [ 321569.523429331544321, 4313837.109109505079687 ], [ 321595.972071908297949, 4313763.190105416812003 ], [ 321615.048027645098045, 4313687.03462122566998 ], [ 321626.567584660311695, 4313609.376075876876712 ], [ 321630.419803322525695, 4313530.962363612838089 ], [ 321626.567584660311695, 4313452.548651348799467 ], [ 321615.048027645098045, 4313374.890106 ], [ 321595.972071908297949, 4313298.734621808864176 ], [ 321581.760578045272268, 4313259.016157244332135 ], [ 321592.308235649601556, 4313254.027486729435623 ], [ 321615.735161400632933, 4313239.985927807167172 ], [ 321660.817470227833837, 4313273.421246775425971 ], [ 321728.156267182726879, 4313313.782568412832916 ], [ 321799.12691075145267, 4313347.34918294288218 ], [ 321873.045914839953184, 4313373.797825519926846 ], [ 321949.201399030629545, 4313392.873781256377697 ], [ 322026.859944379888475, 4313404.393338271416724 ], [ 322105.273656643519644, 4313408.245556933805346 ], [ 322183.687368907150812, 4313404.393338271416724 ], [ 322261.345914256409742, 4313392.873781256377697 ], [ 322337.501398447086103, 4313373.797825519926846 ], [ 322411.420402535586618, 4313347.34918294288218 ], [ 322482.391046104312409, 4313313.782568412832916 ], [ 322549.72984305920545, 4313273.421246775425971 ], [ 322612.788283974456135, 4313226.653919624164701 ], [ 322670.959081592736766, 4313173.930981882847846 ], [ 322723.682019333704375, 4313115.760184264741838 ], [ 322770.449346485547721, 4313052.701743349432945 ], [ 322810.810668122197967, 4312985.362946394830942 ], [ 322844.37728265253827, 4312914.392302826046944 ], [ 322870.825925229291897, 4312840.47329873777926 ], [ 322889.901880966091994, 4312764.317814546637237 ], [ 322901.421437981305644, 4312686.659269197843969 ], [ 322905.273656643519644, 4312608.245556933805346 ], [ 322901.421437981305644, 4312529.831844669766724 ], [ 322889.901880966091994, 4312452.173299320973456 ], [ 322870.825925229291897, 4312376.017815129831433 ], [ 322844.37728265253827, 4312302.098811041563749 ], [ 322834.393807501881383, 4312280.990526324138045 ], [ 322885.604860879888292, 4312234.575533072464168 ], [ 322938.327798620855901, 4312176.40473545435816 ], [ 322985.095125772699248, 4312113.346294539049268 ], [ 323025.456447409349494, 4312046.007497584447265 ], [ 323059.023061939689796, 4311975.036854015663266 ], [ 323085.471704516443424, 4311901.117849927395582 ], [ 323104.547660253243521, 4311824.96236573625356 ], [ 323116.067217268457171, 4311747.303820387460291 ], [ 323119.91943593067117, 4311668.890108123421669 ], [ 323116.067217268457171, 4311590.476395859383047 ], [ 323104.547660253243521, 4311512.817850510589778 ], [ 323085.471704516443424, 4311436.662366319447756 ], [ 323059.023061939689796, 4311362.743362231180072 ], [ 323025.456447409349494, 4311291.772718662396073 ], [ 322985.095125772699248, 4311224.43392170779407 ], [ 322942.319817119394429, 4311166.758094637654722 ], [ 323012.628366906254087, 4311200.011562130413949 ], [ 323086.547370994754601, 4311226.460204707458615 ], [ 323162.702855185430963, 4311245.536160443909466 ], [ 323240.361400534689892, 4311257.055717458948493 ], [ 323318.775112798321061, 4311260.907936121337116 ], [ 323397.18882506195223, 4311257.055717458948493 ], [ 323474.847370411211159, 4311245.536160443909466 ], [ 323551.00285460188752, 4311226.460204707458615 ], [ 323624.921858690388035, 4311200.011562130413949 ], [ 323695.892502259113826, 4311166.444947600364685 ], [ 323763.231299214006867, 4311126.08362596295774 ], [ 323826.289740129257552, 4311079.31629881169647 ], [ 323884.460537747538183, 4311026.593361070379615 ], [ 323937.183475488505792, 4310968.422563452273607 ], [ 323983.950802640349139, 4310905.364122536964715 ], [ 324024.312124276999384, 4310838.025325582362711 ], [ 324057.878738807339687, 4310767.054682013578713 ], [ 324084.327381384093314, 4310693.135677925311029 ], [ 324103.403337120893411, 4310616.980193734169006 ], [ 324114.922894136107061, 4310539.321648385375738 ], [ 324116.381038701103535, 4310509.64043390005827 ], [ 324168.360012525459751, 4310534.224657605402172 ], [ 324242.279016613960266, 4310560.673300182446837 ], [ 324318.434500804636627, 4310579.749255918897688 ], [ 324396.093046153895557, 4310591.268812933936715 ], [ 324474.506758417526726, 4310595.121031596325338 ], [ 324552.920470681157894, 4310591.268812933936715 ], [ 324574.285508369037416, 4310588.09960896987468 ], [ 324572.501356054912321, 4310624.416863638907671 ], [ 324576.353574717126321, 4310702.830575902946293 ], [ 324587.873131732339971, 4310780.489121251739562 ], [ 324606.949087469140068, 4310856.644605442881584 ], [ 324633.397730045893695, 4310930.563609531149268 ], [ 324666.964344576233998, 4311001.534253099933267 ], [ 324707.325666212884244, 4311068.87305005453527 ], [ 324754.09299336472759, 4311131.931490969844162 ], [ 324806.815931105695199, 4311190.10228858795017 ], [ 324864.98672872397583, 4311242.825226329267025 ], [ 324928.045169639226515, 4311289.592553480528295 ], [ 324995.383966594119556, 4311329.95387511793524 ], [ 325066.354610162845347, 4311363.520489647984505 ], [ 325140.273614251345862, 4311389.969132225029171 ], [ 325216.429098442022223, 4311409.045087961480021 ], [ 325294.087643791281153, 4311420.564644976519048 ], [ 325372.501356054912321, 4311424.416863638907671 ], [ 325450.91506831854349, 4311420.564644976519048 ], [ 325528.57361366780242, 4311409.045087961480021 ], [ 325604.729097858478781, 4311389.969132225029171 ], [ 325678.648101946979295, 4311363.520489647984505 ], [ 325749.618745515705086, 4311329.95387511793524 ], [ 325816.957542470598128, 4311289.592553480528295 ], [ 325880.015983385848813, 4311242.825226329267025 ], [ 325938.186781004129443, 4311190.10228858795017 ], [ 325990.909718745097052, 4311131.931490969844162 ], [ 326037.677045896940399, 4311068.87305005453527 ], [ 326078.038367533590645, 4311001.534253099933267 ], [ 326111.604982063930947, 4310930.563609531149268 ], [ 326138.053624640684575, 4310856.644605442881584 ], [ 326157.129580377484672, 4310780.489121251739562 ], [ 326168.649137392698321, 4310702.830575902946293 ], [ 326172.501356054912321, 4310624.416863638907671 ], [ 326168.649137392698321, 4310546.003151374869049 ], [ 326157.129580377484672, 4310468.34460602607578 ], [ 326138.965875585505273, 4310395.8310317536816 ], [ 326179.161540112108923, 4310440.180113320238888 ], [ 326237.332337730389554, 4310492.903051061555743 ], [ 326281.375857332837768, 4310525.567951434291899 ], [ 326323.987699394405354, 4310572.58287410158664 ], [ 326382.158497012685984, 4310625.305811842903495 ], [ 326445.216937927936669, 4310672.073138994164765 ], [ 326512.555734882829711, 4310712.43446063157171 ], [ 326512.71580912603531, 4310712.510170110501349 ], [ 326539.468262922368012, 4310728.544973835349083 ], [ 326610.438906491093803, 4310762.111588365398347 ], [ 326684.357910579594318, 4310788.560230942443013 ], [ 326734.65121127088787, 4310801.15804695058614 ], [ 326722.08611380570801, 4310807.100895456969738 ], [ 326654.747316850814968, 4310847.462217094376683 ], [ 326591.688875935564283, 4310894.229544245637953 ], [ 326533.518078317283653, 4310946.952481986954808 ], [ 326480.795140576316044, 4311005.123279605060816 ], [ 326434.027813424472697, 4311068.181720520369709 ], [ 326423.395991855766624, 4311085.919843179173768 ], [ 326361.89027622382855, 4311107.926940126344562 ], [ 326290.91963265510276, 4311141.493554656393826 ], [ 326223.580835700209718, 4311181.854876293800771 ], [ 326160.522394784959033, 4311228.622203445062041 ], [ 326102.351597166678403, 4311281.345141186378896 ], [ 326049.628659425710794, 4311339.515938804484904 ], [ 326002.861332273867447, 4311402.574379719793797 ], [ 325962.500010637217201, 4311469.9131766743958 ], [ 325928.933396106876899, 4311540.883820243179798 ], [ 325902.484753530123271, 4311614.802824331447482 ], [ 325883.408797793323174, 4311690.958308522589505 ], [ 325871.889240778109524, 4311768.616853871382773 ], [ 325868.037022115895525, 4311847.030566135421395 ], [ 325871.889240778109524, 4311925.444278399460018 ], [ 325883.408797793323174, 4312003.102823748253286 ], [ 325902.484753530123271, 4312079.258307939395308 ], [ 325928.933396106876899, 4312153.177312027662992 ], [ 325962.500010637217201, 4312224.147955596446991 ], [ 326002.861332273867447, 4312291.486752551048994 ], [ 326049.628659425710794, 4312354.545193466357887 ], [ 326102.351597166678403, 4312412.715991084463894 ], [ 326160.522394784959033, 4312465.438928825780749 ], [ 326223.580835700209718, 4312512.206255977042019 ], [ 326290.91963265510276, 4312552.567577614448965 ], [ 326361.89027622382855, 4312586.134192144498229 ], [ 326435.809280312329065, 4312612.582834721542895 ], [ 326511.964764503005426, 4312631.658790457993746 ], [ 326589.623309852264356, 4312643.178347473032773 ], [ 326668.037022115895525, 4312647.030566135421395 ], [ 326746.450734379526693, 4312643.178347473032773 ], [ 326824.109279728785623, 4312631.658790457993746 ], [ 326900.264763919461984, 4312612.582834721542895 ], [ 326974.183768007962499, 4312586.134192144498229 ], [ 327045.15441157668829, 4312552.567577614448965 ], [ 327112.493208531581331, 4312512.206255977042019 ], [ 327175.551649446832016, 4312465.438928825780749 ], [ 327233.722447065112647, 4312412.715991084463894 ], [ 327286.445384806080256, 4312354.545193466357887 ], [ 327333.212711957923602, 4312291.486752551048994 ], [ 327343.844533526629675, 4312273.748629892244935 ], [ 327405.350249158567749, 4312251.741532945074141 ], [ 327436.392112111265305, 4312237.059825190342963 ], [ 327420.897125237388536, 4312280.365412415005267 ], [ 327401.821169500588439, 4312356.520896606147289 ], [ 327390.30161248537479, 4312434.179441954940557 ], [ 327386.44939382316079, 4312512.59315421897918 ], [ 327390.30161248537479, 4312591.006866483017802 ], [ 327401.821169500588439, 4312668.66541183181107 ], [ 327420.897125237388536, 4312744.820896022953093 ], [ 327447.345767814142164, 4312818.739900111220777 ], [ 327480.912382344482467, 4312889.710543680004776 ], [ 327521.273703981132712, 4312957.049340634606779 ], [ 327568.041031132976059, 4313020.107781549915671 ], [ 327620.763968873943668, 4313078.278579168021679 ], [ 327678.934766492224298, 4313131.001516909338534 ], [ 327741.993207407474983, 4313177.768844060599804 ], [ 327809.332004362368025, 4313218.130165698006749 ], [ 327880.302647931093816, 4313251.696780228056014 ], [ 327954.22165201959433, 4313278.145422805100679 ], [ 328030.377136210270692, 4313297.22137854155153 ], [ 328108.035681559529621, 4313308.740935556590557 ], [ 328186.44939382316079, 4313312.59315421897918 ], [ 328264.863106086791959, 4313308.740935556590557 ], [ 328342.521651436050888, 4313297.22137854155153 ], [ 328418.677135626727249, 4313278.145422805100679 ], [ 328492.596139715227764, 4313251.696780228056014 ], [ 328563.566783283953555, 4313218.130165698006749 ], [ 328630.905580238846596, 4313177.768844060599804 ], [ 328693.964021154097281, 4313131.001516909338534 ], [ 328752.134818772377912, 4313078.278579168021679 ], [ 328804.857756513345521, 4313020.107781549915671 ], [ 328851.625083665188868, 4312957.049340634606779 ], [ 328891.986405301839113, 4312889.710543680004776 ], [ 328925.553019832179416, 4312818.739900111220777 ], [ 328952.001662408933043, 4312744.820896022953093 ], [ 328971.07761814573314, 4312668.66541183181107 ], [ 328982.59717516094679, 4312591.006866483017802 ], [ 328986.44939382316079, 4312512.59315421897918 ], [ 328982.59717516094679, 4312434.179441954940557 ], [ 328971.07761814573314, 4312356.520896606147289 ], [ 328952.001662408933043, 4312280.365412415005267 ], [ 328925.553019832179416, 4312206.446408326737583 ], [ 328891.986405301839113, 4312135.475764757953584 ], [ 328851.625083665188868, 4312068.136967803351581 ], [ 328804.857756513345521, 4312005.078526888042688 ], [ 328752.134818772377912, 4311946.907729269936681 ], [ 328693.964021154097281, 4311894.184791528619826 ], [ 328630.905580238846596, 4311847.417464377358556 ], [ 328563.566783283953555, 4311807.056142739951611 ], [ 328492.596139715227764, 4311773.489528209902346 ], [ 328418.677135626727249, 4311747.04088563285768 ], [ 328342.521651436050888, 4311727.964929896406829 ], [ 328264.863106086791959, 4311716.445372881367803 ], [ 328186.44939382316079, 4311712.59315421897918 ], [ 328108.035681559529621, 4311716.445372881367803 ], [ 328030.377136210270692, 4311727.964929896406829 ], [ 327954.22165201959433, 4311747.04088563285768 ], [ 327880.302647931093816, 4311773.489528209902346 ], [ 327849.260784978396259, 4311788.171235964633524 ], [ 327864.755771852273028, 4311744.86564873997122 ], [ 327883.831727589073125, 4311668.710164548829198 ], [ 327895.351284604286775, 4311591.05161920003593 ], [ 327899.203503266500775, 4311512.637906935997307 ], [ 327895.351284604286775, 4311434.224194671958685 ], [ 327883.831727589073125, 4311356.565649323165417 ], [ 327864.755771852273028, 4311280.410165132023394 ], [ 327838.307129275519401, 4311206.49116104375571 ], [ 327804.740514745179098, 4311135.520517474971712 ], [ 327764.379193108528852, 4311068.181720520369709 ], [ 327717.611865956685506, 4311005.123279605060816 ], [ 327664.888928215717897, 4310946.952481986954808 ], [ 327606.718130597437266, 4310894.229544245637953 ], [ 327543.659689682186581, 4310847.462217094376683 ], [ 327476.32089272729354, 4310807.100895456969738 ], [ 327405.350249158567749, 4310773.534280926920474 ], [ 327331.431245070067234, 4310747.085638349875808 ], [ 327281.137944378773682, 4310734.487822341732681 ], [ 327293.703041843953542, 4310728.544973835349083 ], [ 327361.041838798846584, 4310688.183652197942138 ], [ 327424.100279714097269, 4310641.416325046680868 ], [ 327482.271077332377899, 4310588.693387305364013 ], [ 327534.994015073345508, 4310530.522589687258005 ], [ 327581.761342225188855, 4310467.464148771949112 ], [ 327622.122663861839101, 4310400.125351817347109 ], [ 327655.689278392179403, 4310329.154708248563111 ], [ 327682.137920968933031, 4310255.235704160295427 ], [ 327701.213876705733128, 4310179.080219969153404 ], [ 327712.733433720946778, 4310101.421674620360136 ], [ 327714.779653581266757, 4310059.769912499934435 ], [ 327767.594470167416148, 4310020.599774927832186 ], [ 327767.648774618923198, 4310020.55055624153465 ], [ 327768.020658092165831, 4310020.726444025523961 ], [ 327800.201978610886727, 4310032.241104627028108 ], [ 327837.763757884677034, 4310054.754768711514771 ], [ 327872.397990131401457, 4310086.145407060161233 ], [ 327935.456431046652142, 4310132.912734211422503 ], [ 328002.795228001545183, 4310173.274055848829448 ], [ 328073.765871570270974, 4310206.840670378878713 ], [ 328147.684875658771489, 4310233.289312955923378 ], [ 328223.84035984944785, 4310252.365268692374229 ], [ 328301.49890519870678, 4310263.884825707413256 ], [ 328379.912617462337948, 4310267.737044369801879 ], [ 328458.326329725969117, 4310263.884825707413256 ], [ 328535.984875075228047, 4310252.365268692374229 ], [ 328612.140359265904408, 4310233.289312955923378 ], [ 328686.059363354404923, 4310206.840670378878713 ], [ 328757.030006923130713, 4310173.274055848829448 ], [ 328824.368803878023755, 4310132.912734211422503 ], [ 328887.42724479327444, 4310086.145407060161233 ], [ 328945.59804241155507, 4310033.422469318844378 ], [ 328998.320980152522679, 4309975.25167170073837 ], [ 329045.088307304366026, 4309912.193230785429478 ], [ 329085.449628941016272, 4309844.854433830827475 ], [ 329119.016243471356574, 4309773.883790262043476 ], [ 329145.464886048110202, 4309699.964786173775792 ], [ 329164.540841784910299, 4309623.80930198263377 ], [ 329176.060398800123949, 4309546.150756633840501 ], [ 329179.912617462337948, 4309467.737044369801879 ], [ 329176.060398800123949, 4309389.323332105763257 ], [ 329164.540841784910299, 4309311.664786756969988 ], [ 329145.464886048110202, 4309235.509302565827966 ], [ 329119.016243471356574, 4309161.590298477560282 ], [ 329085.449628941016272, 4309090.619654908776283 ], [ 329045.088307304366026, 4309023.28085795417428 ], [ 328998.320980152522679, 4308960.222417038865387 ], [ 328945.59804241155507, 4308902.05161942075938 ], [ 328887.42724479327444, 4308849.328681679442525 ], [ 328824.368803878023755, 4308802.561354528181255 ], [ 328765.130239933845587, 4308767.055125715211034 ], [ 328730.496007686946541, 4308735.664487366564572 ], [ 328702.285787215223536, 4308714.742361943237484 ], [ 328670.264391008007806, 4308679.412195643410087 ], [ 328612.093593389727175, 4308626.689257902093232 ], [ 328549.03515247447649, 4308579.921930750831962 ], [ 328481.696355519583449, 4308539.560609113425016 ], [ 328410.725711950857658, 4308505.993994583375752 ], [ 328336.806707862357143, 4308479.545352006331086 ], [ 328260.651223671680782, 4308460.469396269880235 ], [ 328182.992678322421852, 4308448.949839254841208 ], [ 328104.578966058790684, 4308445.097620592452586 ], [ 328026.165253795159515, 4308448.949839254841208 ], [ 327948.506708445900586, 4308460.469396269880235 ], [ 327872.351224255224224, 4308479.545352006331086 ], [ 327798.43222016672371, 4308505.993994583375752 ], [ 327727.461576597997919, 4308539.560609113425016 ], [ 327660.122779643104877, 4308579.921930750831962 ], [ 327647.356262226006947, 4308589.390225366689265 ], [ 327648.113016726216301, 4308573.986133637838066 ], [ 327644.260798064002302, 4308495.572421373799443 ], [ 327632.741241048788652, 4308417.913876025006175 ], [ 327613.665285311988555, 4308341.758391833864152 ], [ 327587.216642735234927, 4308267.839387745596468 ], [ 327553.650028204894625, 4308196.86874417681247 ], [ 327513.288706568244379, 4308129.529947222210467 ], [ 327466.521379416401032, 4308066.471506306901574 ], [ 327418.698251013120171, 4308013.706815206445754 ], [ 327412.051070444926154, 4308002.61666442733258 ], [ 327423.986245029140264, 4307982.704028632491827 ], [ 327457.552859559480567, 4307911.733385063707829 ], [ 327484.001502136234194, 4307837.814380975440145 ], [ 327503.077457873034291, 4307761.658896784298122 ], [ 327514.597014888247941, 4307684.000351435504854 ], [ 327518.44923355046194, 4307605.586639171466231 ], [ 327514.597014888247941, 4307527.172926907427609 ], [ 327508.885528861079365, 4307488.669215691275895 ], [ 327519.409787755517755, 4307490.23034202773124 ], [ 327597.823500019148923, 4307494.082560690119863 ], [ 327676.237212282780092, 4307490.23034202773124 ], [ 327753.895757632039022, 4307478.710785012692213 ], [ 327830.051241822715383, 4307459.634829276241362 ], [ 327903.970245911215898, 4307433.186186699196696 ], [ 327974.940889479941688, 4307399.619572169147432 ], [ 328042.27968643483473, 4307359.258250531740487 ], [ 328105.338127350085415, 4307312.490923380479217 ], [ 328163.508924968366046, 4307259.767985639162362 ], [ 328216.231862709333654, 4307201.597188021056354 ], [ 328262.999189861177001, 4307138.538747105747461 ], [ 328303.360511497827247, 4307071.199950151145458 ], [ 328336.92712602816755, 4307000.22930658236146 ], [ 328363.375768604921177, 4306926.310302494093776 ], [ 328382.451724341721274, 4306850.154818302951753 ], [ 328393.971281356934924, 4306772.496272954158485 ], [ 328397.823500019148923, 4306694.082560690119863 ], [ 328393.971281356934924, 4306615.66884842608124 ], [ 328382.451724341721274, 4306538.010303077287972 ], [ 328363.375768604921177, 4306461.854818886145949 ], [ 328336.92712602816755, 4306387.935814797878265 ], [ 328303.360511497827247, 4306316.965171229094267 ], [ 328262.999189861177001, 4306249.626374274492264 ], [ 328216.231862709333654, 4306186.567933359183371 ], [ 328163.508924968366046, 4306128.397135741077363 ], [ 328105.338127350085415, 4306075.674197999760509 ], [ 328042.27968643483473, 4306028.906870848499238 ], [ 327974.940889479941688, 4305988.545549211092293 ], [ 327903.970245911215898, 4305954.978934681043029 ], [ 327830.051241822715383, 4305928.530292103998363 ], [ 327753.895757632039022, 4305909.454336367547512 ], [ 327692.941451397666242, 4305900.41261915769428 ], [ 327689.67530507245101, 4305833.928683375008404 ], [ 327678.155748057237361, 4305756.270138026215136 ], [ 327664.476270000101067, 4305701.658600376918912 ], [ 327674.274790419382043, 4305707.53160750027746 ], [ 327745.245433988107834, 4305741.098222030326724 ], [ 327819.164438076608349, 4305767.54686460737139 ], [ 327895.31992226728471, 4305786.622820343822241 ], [ 327972.978467616543639, 4305798.142377358861268 ], [ 328051.392179880174808, 4305801.99459602124989 ], [ 328129.805892143805977, 4305798.142377358861268 ], [ 328207.464437493064906, 4305786.622820343822241 ], [ 328283.619921683741268, 4305767.54686460737139 ], [ 328357.538925772241782, 4305741.098222030326724 ], [ 328428.509569340967573, 4305707.53160750027746 ], [ 328495.848366295860615, 4305667.170285862870514 ], [ 328558.9068072111113, 4305620.402958711609244 ], [ 328617.07760482939193, 4305567.680020970292389 ], [ 328669.800542570359539, 4305509.509223352186382 ], [ 328716.567869722202886, 4305446.450782436877489 ], [ 328756.929191358853132, 4305379.111985482275486 ], [ 328790.495805889193434, 4305308.141341913491488 ], [ 328816.944448465947062, 4305234.222337825223804 ], [ 328836.020404202747159, 4305158.066853634081781 ], [ 328847.539961217960808, 4305080.408308285288513 ], [ 328851.392179880174808, 4305001.99459602124989 ], [ 328847.539961217960808, 4304923.580883757211268 ], [ 328836.020404202747159, 4304845.922338408418 ], [ 328816.944448465947062, 4304769.766854217275977 ], [ 328790.495805889193434, 4304695.847850129008293 ], [ 328756.929191358853132, 4304624.877206560224295 ], [ 328716.567869722202886, 4304557.538409605622292 ], [ 328669.800542570359539, 4304494.479968690313399 ], [ 328617.07760482939193, 4304436.309171072207391 ], [ 328558.9068072111113, 4304383.586233330890536 ], [ 328495.848366295860615, 4304336.818906179629266 ], [ 328428.509569340967573, 4304296.457584542222321 ], [ 328357.538925772241782, 4304262.890970012173057 ], [ 328283.619921683741268, 4304236.442327435128391 ], [ 328207.464437493064906, 4304217.36637169867754 ], [ 328129.805892143805977, 4304205.846814683638513 ], [ 328051.392179880174808, 4304201.99459602124989 ], [ 327972.978467616543639, 4304205.846814683638513 ], [ 327895.31992226728471, 4304217.36637169867754 ], [ 327882.061212526634336, 4304220.687505597248673 ], [ 327874.563561724266037, 4304215.126868784427643 ], [ 327807.224764769372996, 4304174.765547147020698 ], [ 327736.254121200647205, 4304141.198932616971433 ], [ 327732.097297660482582, 4304139.711597371846437 ], [ 327735.443877247394994, 4304130.358533998019993 ], [ 327754.519832984195091, 4304054.203049806877971 ], [ 327766.039389999408741, 4303976.544504458084702 ], [ 327769.89160866162274, 4303898.13079219404608 ], [ 327766.039389999408741, 4303819.717079930007458 ], [ 327754.519832984195091, 4303742.05853458121419 ], [ 327735.443877247394994, 4303665.903050390072167 ], [ 327708.995234670641366, 4303591.984046301804483 ], [ 327675.428620140301064, 4303521.013402733020484 ], [ 327635.067298503650818, 4303453.674605778418481 ], [ 327588.299971351807471, 4303390.616164863109589 ], [ 327535.577033610839862, 4303332.445367245003581 ], [ 327477.406235992559232, 4303279.722429503686726 ], [ 327414.347795077308547, 4303232.955102352425456 ], [ 327347.008998122415505, 4303192.593780715018511 ], [ 327276.038354553689715, 4303159.027166184969246 ], [ 327202.1193504651892, 4303132.578523607924581 ], [ 327125.963866274512839, 4303113.50256787147373 ], [ 327048.305320925253909, 4303101.983010856434703 ], [ 326969.89160866162274, 4303098.13079219404608 ], [ 326891.477896397991572, 4303101.983010856434703 ], [ 326861.071712286619004, 4303106.493342204019427 ], [ 326858.427997878578026, 4303106.101184216327965 ], [ 326780.014285614946857, 4303102.248965553939342 ], [ 326701.600573351315688, 4303106.101184216327965 ], [ 326623.942028002056759, 4303117.620741231366992 ], [ 326547.786543811380398, 4303136.696696967817843 ], [ 326473.867539722879883, 4303163.145339544862509 ], [ 326402.896896154154092, 4303196.711954074911773 ], [ 326335.558099199261051, 4303237.073275712318718 ], [ 326272.499658284010366, 4303283.840602863579988 ], [ 326218.088762674189638, 4303333.155764063820243 ], [ 326208.603829428146128, 4303322.69075289554894 ], [ 326157.06033235497307, 4303275.974450241774321 ], [ 326161.725817194615956, 4303266.110111336223781 ], [ 326188.174459771369584, 4303192.191107247956097 ], [ 326207.250415508169681, 4303116.035623056814075 ], [ 326215.28264813136775, 4303061.886709119193256 ], [ 326222.887346763920505, 4303060.758658637292683 ], [ 326299.042830954596866, 4303041.682702900841832 ], [ 326372.961835043097381, 4303015.234060323797166 ], [ 326443.932478611823171, 4302981.667445793747902 ], [ 326511.271275566716213, 4302941.306124156340957 ], [ 326574.329716481966898, 4302894.538797005079687 ], [ 326632.500514100247528, 4302841.815859263762832 ], [ 326685.223451841215137, 4302783.645061645656824 ], [ 326731.990778993058484, 4302720.586620730347931 ], [ 326772.35210062970873, 4302653.247823775745928 ], [ 326805.918715160049032, 4302582.27718020696193 ], [ 326832.36735773680266, 4302508.358176118694246 ], [ 326836.420664134202525, 4302492.176469915546477 ], [ 326888.41299543454079, 4302516.767011237330735 ], [ 326962.331999523041304, 4302543.215653814375401 ], [ 327038.487483713717666, 4302562.291609550826252 ], [ 327116.146029062976595, 4302573.811166565865278 ], [ 327194.559741326607764, 4302577.663385228253901 ], [ 327272.973453590238933, 4302573.811166565865278 ], [ 327350.631998939497862, 4302562.291609550826252 ], [ 327426.787483130174223, 4302543.215653814375401 ], [ 327500.706487218674738, 4302516.767011237330735 ], [ 327571.677130787400529, 4302483.20039670728147 ], [ 327639.01592774229357, 4302442.839075069874525 ], [ 327702.074368657544255, 4302396.071747918613255 ], [ 327760.245166275824886, 4302343.3488101772964 ], [ 327812.968104016792495, 4302285.178012559190392 ], [ 327813.775806678866502, 4302284.08895159047097 ], [ 327813.811781878292095, 4302284.049259074963629 ], [ 327814.619483027025126, 4302282.960200146771967 ], [ 327814.655459987232462, 4302282.920505688525736 ], [ 327815.463159606559202, 4302281.831448823213577 ], [ 327815.499138343788218, 4302281.791752403602004 ], [ 327816.306836442439817, 4302280.702697588130832 ], [ 327816.342816947726533, 4302280.662999218329787 ], [ 327817.150513525761198, 4302279.573946453630924 ], [ 327817.186495798174292, 4302279.534246133640409 ], [ 327863.953822950017639, 4302216.475805218331516 ], [ 327904.315144586667884, 4302149.137008263729513 ], [ 327937.881759117008187, 4302078.166364694945514 ], [ 327964.330401693761814, 4302004.24736060667783 ], [ 327983.406357430561911, 4301928.091876415535808 ], [ 327994.925914445775561, 4301850.433331066742539 ], [ 327998.778133107989561, 4301772.019618802703917 ], [ 327994.925914445775561, 4301693.605906538665295 ], [ 327983.406357430561911, 4301615.947361189872026 ], [ 327964.330401693761814, 4301539.791876998730004 ], [ 327937.881759117008187, 4301465.87287291046232 ], [ 327904.315144586667884, 4301394.902229341678321 ], [ 327863.953822950017639, 4301327.563432387076318 ], [ 327817.186495798174292, 4301264.504991471767426 ], [ 327764.463558057206683, 4301206.334193853661418 ], [ 327706.292760438926052, 4301153.611256112344563 ], [ 327643.234319523675367, 4301106.843928961083293 ], [ 327575.895522568782326, 4301066.482607323676348 ], [ 327504.924879000056535, 4301032.915992793627083 ], [ 327431.00587491155602, 4301006.467350216582417 ], [ 327354.850390720879659, 4300987.391394480131567 ], [ 327277.19184537162073, 4300975.87183746509254 ], [ 327198.778133107989561, 4300972.019618802703917 ], [ 327120.364420844358392, 4300975.87183746509254 ], [ 327042.705875495099463, 4300987.391394480131567 ], [ 326966.550391304423101, 4301006.467350216582417 ], [ 326892.631387215922587, 4301032.915992793627083 ], [ 326821.660743647196796, 4301066.482607323676348 ], [ 326754.321946692303754, 4301106.843928961083293 ], [ 326691.263505777053069, 4301153.611256112344563 ], [ 326633.092708158772439, 4301206.334193853661418 ], [ 326580.36977041780483, 4301264.504991471767426 ], [ 326579.562073839770164, 4301265.594044236466289 ], [ 326579.526091567357071, 4301265.633744556456804 ], [ 326578.718393468705472, 4301266.722799371927977 ], [ 326578.682412963418756, 4301266.762497741729021 ], [ 326577.874713344092015, 4301267.85155460704118 ], [ 326577.838734606862999, 4301267.891251026652753 ], [ 326577.031033458129968, 4301268.980309954844415 ], [ 326576.995056497922633, 4301269.020004413090646 ], [ 326576.187353835848626, 4301270.109065381810069 ], [ 326576.151378636423033, 4301270.14875789731741 ], [ 326529.384051484579686, 4301333.207198812626302 ], [ 326489.02272984792944, 4301400.545995767228305 ], [ 326455.456115317589138, 4301471.516639336012304 ], [ 326429.00747274083551, 4301545.435643424279988 ], [ 326424.954166343435645, 4301561.617349627427757 ], [ 326372.961835043097381, 4301537.026808305643499 ], [ 326299.042830954596866, 4301510.578165728598833 ], [ 326222.887346763920505, 4301491.502209992147982 ], [ 326145.228801414661575, 4301479.982652977108955 ], [ 326066.815089151030406, 4301476.130434314720333 ], [ 326054.902494940324686, 4301476.715662540867925 ], [ 326020.214164204837289, 4301418.841679099015892 ], [ 325973.446837052993942, 4301355.783238183706999 ], [ 325920.723899312026333, 4301297.612440565600991 ], [ 325862.553101693745703, 4301244.889502824284136 ], [ 325799.494660778495017, 4301198.122175673022866 ], [ 325732.155863823601976, 4301157.760854035615921 ], [ 325708.216737351322081, 4301146.438490448519588 ], [ 325713.419567643781193, 4301125.667627612128854 ], [ 325724.939124658994842, 4301048.009082263335586 ], [ 325728.791343321208842, 4300969.595369999296963 ], [ 325724.939124658994842, 4300891.181657735258341 ], [ 325713.419567643781193, 4300813.523112386465073 ], [ 325694.343611906981096, 4300737.36762819532305 ], [ 325667.894969330227468, 4300663.448624107055366 ], [ 325634.328354799887165, 4300592.477980538271368 ], [ 325593.96703316323692, 4300525.139183583669364 ], [ 325547.199706011393573, 4300462.080742668360472 ], [ 325494.476768270425964, 4300403.909945050254464 ], [ 325436.305970652145334, 4300351.187007308937609 ], [ 325373.247529736894649, 4300304.419680157676339 ], [ 325305.908732782001607, 4300264.058358520269394 ], [ 325234.938089213275816, 4300230.491743990220129 ], [ 325161.019085124775302, 4300204.043101413175464 ], [ 325084.86360093409894, 4300184.967145676724613 ], [ 325007.205055584840011, 4300173.447588661685586 ], [ 324928.791343321208842, 4300169.595369999296963 ], [ 324850.377631057577673, 4300173.447588661685586 ], [ 324772.719085708318744, 4300184.967145676724613 ], [ 324696.563601517642383, 4300204.043101413175464 ], [ 324622.644597429141868, 4300230.491743990220129 ], [ 324551.673953860416077, 4300264.058358520269394 ], [ 324484.335156905523036, 4300304.419680157676339 ], [ 324421.276715990272351, 4300351.187007308937609 ], [ 324363.10591837199172, 4300403.909945050254464 ], [ 324310.382980631024111, 4300462.080742668360472 ], [ 324263.615653479180764, 4300525.139183583669364 ], [ 324223.254331842530519, 4300592.477980538271368 ], [ 324189.687717312190216, 4300663.448624107055366 ], [ 324163.239074735436589, 4300737.36762819532305 ], [ 324144.163118998636492, 4300813.523112386465073 ], [ 324132.643561983422842, 4300891.181657735258341 ], [ 324128.791343321208842, 4300969.595369999296963 ], [ 324132.643561983422842, 4301048.009082263335586 ], [ 324144.163118998636492, 4301125.667627612128854 ], [ 324163.239074735436589, 4301201.823111803270876 ], [ 324189.687717312190216, 4301275.74211589153856 ], [ 324223.254331842530519, 4301346.712759460322559 ], [ 324263.615653479180764, 4301414.051556414924562 ], [ 324310.382980631024111, 4301477.109997330233455 ], [ 324363.10591837199172, 4301535.280794948339462 ], [ 324421.276715990272351, 4301588.003732689656317 ], [ 324484.335156905523036, 4301634.771059840917587 ], [ 324551.673953860416077, 4301675.132381478324533 ], [ 324575.613080332695972, 4301686.454745065420866 ], [ 324570.410250040236861, 4301707.2256079018116 ], [ 324558.890693025023211, 4301784.884153250604868 ], [ 324555.038474362809211, 4301863.29786551464349 ], [ 324558.890693025023211, 4301941.711577778682113 ], [ 324570.410250040236861, 4302019.370123127475381 ], [ 324589.486205777036957, 4302095.525607318617404 ], [ 324615.934848353790585, 4302169.444611406885087 ], [ 324649.501462884130888, 4302240.415254975669086 ], [ 324689.862784520781133, 4302307.754051930271089 ], [ 324701.894638610363472, 4302323.977129159495234 ], [ 324699.687927430437412, 4302338.85356755182147 ], [ 324695.835708768223412, 4302417.267279815860093 ], [ 324699.687927430437412, 4302495.680992079898715 ], [ 324711.207484445651062, 4302573.339537428691983 ], [ 324714.799331710615661, 4302587.678995507769287 ], [ 324683.518565176578704, 4302653.816619551740587 ], [ 324657.069922599825077, 4302727.735623640008271 ], [ 324637.99396686302498, 4302803.891107831150293 ], [ 324626.47440984781133, 4302881.549653179943562 ], [ 324622.62219118559733, 4302959.963365443982184 ], [ 324626.47440984781133, 4303038.377077708020806 ], [ 324637.99396686302498, 4303116.035623056814075 ], [ 324657.069922599825077, 4303192.191107247956097 ], [ 324683.518565176578704, 4303266.110111336223781 ], [ 324717.085179706919007, 4303337.08075490500778 ], [ 324757.446501343569253, 4303404.419551859609783 ], [ 324804.213828495412599, 4303467.477992774918675 ], [ 324856.936766236380208, 4303525.648790393024683 ], [ 324892.381083634740207, 4303557.773647124879062 ], [ 324881.474464388098568, 4303580.833756043575704 ], [ 324855.02582181134494, 4303654.752760131843388 ], [ 324835.949866074544843, 4303730.908244322985411 ], [ 324824.430309059331194, 4303808.566789671778679 ], [ 324820.578090397117194, 4303886.980501935817301 ], [ 324820.692950116004795, 4303889.31852522585541 ], [ 324819.13284490123624, 4303895.546814369037747 ], [ 324807.61328788602259, 4303973.205359717831016 ], [ 324803.76106922380859, 4304051.619071981869638 ], [ 324806.030774114071392, 4304097.819976394064724 ], [ 324753.461452905030455, 4304090.022054218687117 ], [ 324675.047740641399287, 4304086.169835556298494 ], [ 324596.634028377768118, 4304090.022054218687117 ], [ 324518.975483028509188, 4304101.541611233726144 ], [ 324442.819998837832827, 4304120.617566970176995 ], [ 324368.900994749332312, 4304147.066209547221661 ], [ 324297.930351180606522, 4304180.632824077270925 ], [ 324230.59155422571348, 4304220.99414571467787 ], [ 324167.533113310462795, 4304267.76147286593914 ], [ 324109.362315692182165, 4304320.484410607255995 ], [ 324056.639377951214556, 4304378.655208225362003 ], [ 324039.68515198060777, 4304401.515335620380938 ], [ 323986.734807116852608, 4304362.244683427736163 ], [ 323919.396010161959566, 4304321.883361790329218 ], [ 323848.425366593233775, 4304288.316747260279953 ], [ 323774.506362504733261, 4304261.868104683235288 ], [ 323698.350878314056899, 4304242.792148946784437 ], [ 323620.69233296479797, 4304231.27259193174541 ], [ 323542.278620701166801, 4304227.420373269356787 ], [ 323463.864908437535632, 4304231.27259193174541 ], [ 323386.206363088276703, 4304242.792148946784437 ], [ 323310.050878897600342, 4304261.868104683235288 ], [ 323236.131874809099827, 4304288.316747260279953 ], [ 323165.161231240374036, 4304321.883361790329218 ], [ 323097.822434285480995, 4304362.244683427736163 ], [ 323034.76399337023031, 4304409.012010578997433 ], [ 322976.593195751949679, 4304461.734948320314288 ], [ 322960.315716699813493, 4304479.694378888234496 ], [ 322948.523334001540206, 4304488.440205957740545 ], [ 322890.352536383259576, 4304541.1631436990574 ], [ 322837.629598642291967, 4304599.333941317163408 ], [ 322790.86227149044862, 4304662.392382232472301 ], [ 322750.500949853798375, 4304729.731179187074304 ], [ 322716.934335323458072, 4304800.701822755858302 ], [ 322690.485692746704444, 4304874.620826844125986 ], [ 322671.409737009904347, 4304950.776311035268009 ], [ 322659.890179994690698, 4305028.434856384061277 ], [ 322656.037961332476698, 4305106.848568648099899 ], [ 322659.890179994690698, 4305185.262280912138522 ], [ 322671.409737009904347, 4305262.92082626093179 ], [ 322690.485692746704444, 4305339.076310452073812 ], [ 322716.934335323458072, 4305412.995314540341496 ], [ 322750.500949853798375, 4305483.965958109125495 ], [ 322790.86227149044862, 4305551.304755063727498 ], [ 322837.629598642291967, 4305614.363195979036391 ], [ 322890.352536383259576, 4305672.533993597142398 ], [ 322897.934991387010086, 4305679.406330224126577 ], [ 322907.846097118454054, 4305746.221577797085047 ], [ 322926.922052855254151, 4305822.377061988227069 ], [ 322953.370695432007778, 4305896.296066076494753 ], [ 322963.8960330610862, 4305918.550022746436298 ], [ 322955.207943401357625, 4305977.120365681126714 ], [ 322951.355724739143625, 4306055.534077945165336 ], [ 322955.207943401357625, 4306133.947790209203959 ], [ 322966.727500416571274, 4306211.606335557997227 ], [ 322978.0780054962961, 4306256.920091895386577 ], [ 322935.591364469495602, 4306250.617794041521847 ], [ 322857.177652205864433, 4306246.765575379133224 ], [ 322778.763939942233264, 4306250.617794041521847 ], [ 322701.105394592974335, 4306262.137351056560874 ], [ 322644.690265891957097, 4306276.268605153076351 ], [ 322593.392662388097961, 4306257.914029129780829 ], [ 322517.237178197421599, 4306238.838073393329978 ], [ 322439.57863284816267, 4306227.318516378290951 ] ], [ [ 322537.889744753832929, 4310085.42824565898627 ], [ 322533.266488657100126, 4310066.971172710880637 ], [ 322506.817846080346499, 4309993.052168622612953 ], [ 322473.251231550006196, 4309922.081525053828955 ], [ 322432.88990991335595, 4309854.742728099226952 ], [ 322386.122582761512604, 4309791.684287183918059 ], [ 322333.399645020544995, 4309733.513489565812051 ], [ 322315.827048847917467, 4309717.586616772226989 ], [ 322347.540578454907518, 4309732.585999195463955 ], [ 322421.459582543408033, 4309759.034641772508621 ], [ 322497.615066734084394, 4309778.110597508959472 ], [ 322575.273612083343323, 4309789.630154523998499 ], [ 322653.687324346974492, 4309793.482373186387122 ], [ 322712.922276030178182, 4309790.572346613742411 ], [ 322726.265036888536997, 4309800.468012493103743 ], [ 322793.603833843430039, 4309840.829334130510688 ], [ 322806.416958227287978, 4309846.889490633271635 ], [ 322753.089687849103939, 4309895.222511172294617 ], [ 322700.36675010813633, 4309953.393308790400624 ], [ 322653.599422956292983, 4310016.451749705709517 ], [ 322613.238101319642738, 4310083.79054666031152 ], [ 322579.671486789302435, 4310154.761190229095519 ], [ 322578.10652382200351, 4310159.134968718513846 ], [ 322563.285403227142524, 4310127.798342080786824 ], [ 322537.889744753832929, 4310085.42824565898627 ] ], [ [ 321999.941961874894332, 4309533.646645928733051 ], [ 321923.786477684217971, 4309514.5706901922822 ], [ 321846.127932334959041, 4309503.051133177243173 ], [ 321767.714220071327873, 4309499.19891451485455 ], [ 321689.300507807696704, 4309503.051133177243173 ], [ 321611.641962458437774, 4309514.5706901922822 ], [ 321543.139766042062547, 4309531.729597139172256 ], [ 321545.404903394286521, 4309485.621667099185288 ], [ 321541.552684732072521, 4309407.207954835146666 ], [ 321530.033127716858871, 4309329.549409486353397 ], [ 321510.957171980058774, 4309253.393925295211375 ], [ 321484.508529403305147, 4309179.474921206943691 ], [ 321450.941914872964844, 4309108.504277638159692 ], [ 321410.580593236314598, 4309041.165480683557689 ], [ 321383.113654279732145, 4309004.130600719712675 ], [ 321403.130302926350851, 4308996.968529311940074 ], [ 321458.373359029646963, 4308970.840509662404656 ], [ 321521.086495220777579, 4308980.143124651163816 ], [ 321599.500207484408747, 4308983.995343313552439 ], [ 321677.913919748039916, 4308980.143124651163816 ], [ 321679.936279055313207, 4308979.843135986477137 ], [ 321694.426206863718107, 4308990.58959886059165 ], [ 321715.814955487789121, 4309003.409521426074207 ], [ 321740.222807999292854, 4309071.624899374321103 ], [ 321773.789422529633157, 4309142.595542943105102 ], [ 321814.150744166283403, 4309209.934339897707105 ], [ 321860.918071318126749, 4309272.992780813015997 ], [ 321913.641009059094358, 4309331.163578431122005 ], [ 321941.396221823000815, 4309356.319436945021152 ], [ 321948.150312868296169, 4309370.599762647412717 ], [ 321988.511634504946414, 4309437.93855960201472 ], [ 322035.278961656789761, 4309500.997000517323613 ], [ 322088.00189939775737, 4309559.167798135429621 ], [ 322105.574495570384897, 4309575.094670929014683 ], [ 322073.860965963394847, 4309560.095288505777717 ], [ 321999.941961874894332, 4309533.646645928733051 ] ], [ [ 319566.931110201694537, 4310620.682372999377549 ], [ 319589.14051098836353, 4310667.640205630101264 ], [ 319553.867644421872683, 4310665.907360813580453 ], [ 319475.453932158241514, 4310669.759579475969076 ], [ 319441.465162611857522, 4310674.801337171345949 ], [ 319481.111982495873235, 4310621.343788892030716 ], [ 319521.473304132523481, 4310554.004991937428713 ], [ 319535.086639020475559, 4310525.222013623453677 ], [ 319540.482467624940909, 4310546.763368911109865 ], [ 319566.931110201694537, 4310620.682372999377549 ] ], [ [ 321025.037634889129549, 4310753.437452420592308 ], [ 321051.486277465883177, 4310827.356456508859992 ], [ 321085.05289199622348, 4310898.327100077643991 ], [ 321096.827021261502523, 4310917.97104799002409 ], [ 321079.919595988758374, 4310953.718795252963901 ], [ 321053.470953412004746, 4311027.637799341231585 ], [ 321034.39499767520465, 4311103.793283532373607 ], [ 321029.289977995445952, 4311138.208530731499195 ], [ 320993.038184670440387, 4311077.726067547686398 ], [ 320946.27085751859704, 4311014.667626632377505 ], [ 320893.547919777629431, 4310956.496829014271498 ], [ 320840.555364898988046, 4310908.467176920734346 ], [ 320871.720161159930285, 4310880.221052056178451 ], [ 320924.443098900897894, 4310822.050254438072443 ], [ 320971.210426052741241, 4310758.99181352276355 ], [ 321010.153953089960851, 4310694.018463951535523 ], [ 321025.037634889129549, 4310753.437452420592308 ] ], [ [ 325396.864615368365776, 4309732.711368943564594 ], [ 325397.514198340242729, 4309719.488803789950907 ], [ 325419.475117749418132, 4309689.877931769937277 ], [ 325459.836439386068378, 4309622.539134815335274 ], [ 325493.40305391640868, 4309551.568491246551275 ], [ 325508.436481194163207, 4309509.552876676432788 ], [ 325530.132506101857871, 4309519.814332234673202 ], [ 325604.051510190358385, 4309546.262974811717868 ], [ 325680.206994381034747, 4309565.338930548168719 ], [ 325757.865539730293676, 4309576.858487563207746 ], [ 325836.279251993924845, 4309580.710706225596368 ], [ 325846.606396566785406, 4309580.2033661454916 ], [ 325881.355963103589602, 4309601.031454783864319 ], [ 325952.326606672315393, 4309634.598069313913584 ], [ 325978.839421501208562, 4309644.084506147541106 ], [ 325960.218740738753695, 4309718.422430758364499 ], [ 325948.699183723540045, 4309796.080976107157767 ], [ 325944.846965061326046, 4309874.494688371196389 ], [ 325948.699183723540045, 4309952.908400635235012 ], [ 325960.218740738753695, 4310030.56694598402828 ], [ 325978.382445530733094, 4310103.08052025642246 ], [ 325938.186781004129443, 4310058.731438689865172 ], [ 325880.015983385848813, 4310006.008500948548317 ], [ 325816.957542470598128, 4309959.241173797287047 ], [ 325749.618745515705086, 4309918.879852159880102 ], [ 325678.648101946979295, 4309885.313237629830837 ], [ 325604.729097858478781, 4309858.864595052786171 ], [ 325528.57361366780242, 4309839.78863931633532 ], [ 325450.91506831854349, 4309828.269082301296294 ], [ 325381.713124054251239, 4309824.869408781640232 ], [ 325385.345058353152126, 4309810.369914292357862 ], [ 325396.864615368365776, 4309732.711368943564594 ] ], [ [ 326483.15261350775836, 4306742.018970338627696 ], [ 326483.932110815716442, 4306757.886002554558218 ], [ 326495.451667830930091, 4306835.544547903351486 ], [ 326495.964967950596474, 4306837.593756849877536 ], [ 326486.221491746895481, 4306840.034370585344732 ], [ 326477.849187140411232, 4306843.030029074288905 ], [ 326470.819577674090397, 4306823.383586752228439 ], [ 326441.626248527085409, 4306761.659478245303035 ], [ 326483.15261350775836, 4306742.018970338627696 ] ] ], [ [ [ 322609.644004468689673, 4313625.649786761961877 ], [ 322538.673360899963882, 4313592.083172231912613 ], [ 322464.754356811463367, 4313565.634529654867947 ], [ 322388.598872620787006, 4313546.558573918417096 ], [ 322310.940327271528076, 4313535.039016903378069 ], [ 322232.526615007896908, 4313531.186798240989447 ], [ 322154.112902744265739, 4313535.039016903378069 ], [ 322076.454357395006809, 4313546.558573918417096 ], [ 322000.298873204330448, 4313565.634529654867947 ], [ 321926.379869115829933, 4313592.083172231912613 ], [ 321855.409225547104143, 4313625.649786761961877 ], [ 321788.070428592211101, 4313666.011108399368823 ], [ 321725.011987676960416, 4313712.778435550630093 ], [ 321666.841190058679786, 4313765.501373291946948 ], [ 321614.118252317712177, 4313823.672170910052955 ], [ 321567.35092516586883, 4313886.730611825361848 ], [ 321526.989603529218584, 4313954.069408779963851 ], [ 321493.422988998878282, 4314025.040052348747849 ], [ 321466.974346422124654, 4314098.959056437015533 ], [ 321447.898390685324557, 4314175.114540628157556 ], [ 321436.378833670110907, 4314252.773085976950824 ], [ 321432.526615007896908, 4314331.186798240989447 ], [ 321436.378833670110907, 4314409.600510505028069 ], [ 321447.898390685324557, 4314487.259055853821337 ], [ 321466.974346422124654, 4314563.41454004496336 ], [ 321493.422988998878282, 4314637.333544133231044 ], [ 321526.989603529218584, 4314708.304187702015042 ], [ 321567.35092516586883, 4314775.642984656617045 ], [ 321611.770067957404535, 4314835.535265482030809 ], [ 321571.975892494025175, 4314854.356508761644363 ], [ 321504.637095539132133, 4314894.717830399051309 ], [ 321441.578654623881448, 4314941.485157550312579 ], [ 321383.407857005600818, 4314994.208095291629434 ], [ 321330.684919264633209, 4315052.378892909735441 ], [ 321283.917592112789862, 4315115.437333825044334 ], [ 321243.556270476139616, 4315182.776130779646337 ], [ 321209.989655945799313, 4315253.746774348430336 ], [ 321183.541013369045686, 4315327.66577843669802 ], [ 321164.465057632245589, 4315403.821262627840042 ], [ 321152.945500617031939, 4315481.47980797663331 ], [ 321149.09328195481794, 4315559.893520240671933 ], [ 321152.945500617031939, 4315638.307232504710555 ], [ 321164.465057632245589, 4315715.965777853503823 ], [ 321183.541013369045686, 4315792.121262044645846 ], [ 321209.989655945799313, 4315866.04026613291353 ], [ 321243.556270476139616, 4315937.010909701697528 ], [ 321283.917592112789862, 4316004.349706656299531 ], [ 321330.684919264633209, 4316067.408147571608424 ], [ 321383.407857005600818, 4316125.578945189714432 ], [ 321441.578654623881448, 4316178.301882931031287 ], [ 321504.637095539132133, 4316225.069210082292557 ], [ 321571.975892494025175, 4316265.430531719699502 ], [ 321642.946536062750965, 4316298.997146249748766 ], [ 321716.86554015125148, 4316325.445788826793432 ], [ 321793.021024341927841, 4316344.521744563244283 ], [ 321870.679569691186771, 4316356.04130157828331 ], [ 321949.09328195481794, 4316359.893520240671933 ], [ 322027.506994218449108, 4316356.04130157828331 ], [ 322105.165539567708038, 4316344.521744563244283 ], [ 322181.321023758384399, 4316325.445788826793432 ], [ 322255.240027846884914, 4316298.997146249748766 ], [ 322326.210671415610705, 4316265.430531719699502 ], [ 322393.549468370503746, 4316225.069210082292557 ], [ 322456.607909285754431, 4316178.301882931031287 ], [ 322514.778706904035062, 4316125.578945189714432 ], [ 322567.501644645002671, 4316067.408147571608424 ], [ 322614.268971796846017, 4316004.349706656299531 ], [ 322654.630293433496263, 4315937.010909701697528 ], [ 322688.196907963836566, 4315866.04026613291353 ], [ 322714.645550540590193, 4315792.121262044645846 ], [ 322733.72150627739029, 4315715.965777853503823 ], [ 322745.24106329260394, 4315638.307232504710555 ], [ 322749.09328195481794, 4315559.893520240671933 ], [ 322745.24106329260394, 4315481.47980797663331 ], [ 322733.72150627739029, 4315403.821262627840042 ], [ 322714.645550540590193, 4315327.66577843669802 ], [ 322688.196907963836566, 4315253.746774348430336 ], [ 322654.630293433496263, 4315182.776130779646337 ], [ 322614.268971796846017, 4315115.437333825044334 ], [ 322569.849829005310312, 4315055.54505299963057 ], [ 322609.644004468689673, 4315036.723809720017016 ], [ 322676.982801423582714, 4314996.362488082610071 ], [ 322740.041242338833399, 4314949.595160931348801 ], [ 322749.781552481348626, 4314940.767058407887816 ], [ 322796.304275058966596, 4314975.270661021582782 ], [ 322863.643072013859637, 4315015.631982658989727 ], [ 322934.613715582585428, 4315049.198597189038992 ], [ 323008.532719671085943, 4315075.647239766083658 ], [ 323084.688203861762304, 4315094.723195502534509 ], [ 323156.559958024299704, 4315105.384363132528961 ], [ 323158.280536170641426, 4315108.254974344745278 ], [ 323205.047863322484773, 4315171.313415260054171 ], [ 323257.770801063452382, 4315229.484212878160179 ], [ 323315.941598681733012, 4315282.207150619477034 ], [ 323379.000039596983697, 4315328.974477770738304 ], [ 323446.338836551876739, 4315369.335799408145249 ], [ 323517.309480120602529, 4315402.902413938194513 ], [ 323591.228484209103044, 4315429.351056515239179 ], [ 323667.383968399779405, 4315448.42701225169003 ], [ 323671.300003585522063, 4315449.007901198230684 ], [ 323686.157927429536358, 4315508.324058146215975 ], [ 323712.606570006289985, 4315582.243062234483659 ], [ 323746.173184536630288, 4315653.213705803267658 ], [ 323786.534506173280533, 4315720.552502757869661 ], [ 323833.30183332512388, 4315783.610943673178554 ], [ 323845.423015451990068, 4315796.984607255086303 ], [ 323799.625467017991468, 4315838.493085626512766 ], [ 323746.902529277023859, 4315896.663883244618773 ], [ 323700.135202125180513, 4315959.722324159927666 ], [ 323659.773880488530267, 4316027.061121114529669 ], [ 323626.207265958189964, 4316098.031764683313668 ], [ 323599.758623381436337, 4316171.950768771581352 ], [ 323580.68266764463624, 4316248.106252962723374 ], [ 323569.16311062942259, 4316325.764798311516643 ], [ 323565.31089196720859, 4316404.178510575555265 ], [ 323569.16311062942259, 4316482.592222839593887 ], [ 323580.68266764463624, 4316560.250768188387156 ], [ 323599.758623381436337, 4316636.406252379529178 ], [ 323626.207265958189964, 4316710.325256467796862 ], [ 323659.773880488530267, 4316781.295900036580861 ], [ 323700.135202125180513, 4316848.634696991182864 ], [ 323746.902529277023859, 4316911.693137906491756 ], [ 323799.625467017991468, 4316969.863935524597764 ], [ 323857.796264636272099, 4317022.586873265914619 ], [ 323920.854705551522784, 4317069.354200417175889 ], [ 323988.193502506415825, 4317109.715522054582834 ], [ 324059.164146075141616, 4317143.282136584632099 ], [ 324133.083150163642131, 4317169.730779161676764 ], [ 324209.238634354318492, 4317188.806734898127615 ], [ 324286.897179703577422, 4317200.326291913166642 ], [ 324365.31089196720859, 4317204.178510575555265 ], [ 324443.724604230839759, 4317200.326291913166642 ], [ 324521.383149580098689, 4317188.806734898127615 ], [ 324597.53863377077505, 4317169.730779161676764 ], [ 324671.457637859275565, 4317143.282136584632099 ], [ 324742.428281428001355, 4317109.715522054582834 ], [ 324809.767078382894397, 4317069.354200417175889 ], [ 324872.825519298145082, 4317022.586873265914619 ], [ 324930.996316916425712, 4316969.863935524597764 ], [ 324983.719254657393321, 4316911.693137906491756 ], [ 325030.486581809236668, 4316848.634696991182864 ], [ 325070.847903445886914, 4316781.295900036580861 ], [ 325104.414517976227216, 4316710.325256467796862 ], [ 325130.863160552980844, 4316636.406252379529178 ], [ 325149.939116289780941, 4316560.250768188387156 ], [ 325161.458673304994591, 4316482.592222839593887 ], [ 325165.31089196720859, 4316404.178510575555265 ], [ 325161.458673304994591, 4316325.764798311516643 ], [ 325149.939116289780941, 4316248.106252962723374 ], [ 325130.863160552980844, 4316171.950768771581352 ], [ 325104.414517976227216, 4316098.031764683313668 ], [ 325070.847903445886914, 4316027.061121114529669 ], [ 325030.486581809236668, 4315959.722324159927666 ], [ 324983.719254657393321, 4315896.663883244618773 ], [ 324971.598072530527133, 4315883.290219662711024 ], [ 325017.395620964525733, 4315841.781741291284561 ], [ 325070.118558705493342, 4315783.610943673178554 ], [ 325116.885885857336689, 4315720.552502757869661 ], [ 325157.247207493986934, 4315653.213705803267658 ], [ 325190.813822024327237, 4315582.243062234483659 ], [ 325217.262464601080865, 4315508.324058146215975 ], [ 325236.338420337880962, 4315432.168573955073953 ], [ 325247.857977353094611, 4315354.510028606280684 ], [ 325251.710196015308611, 4315276.096316342242062 ], [ 325247.857977353094611, 4315197.68260407820344 ], [ 325236.338420337880962, 4315120.024058729410172 ], [ 325217.262464601080865, 4315043.868574538268149 ], [ 325190.813822024327237, 4314969.949570450000465 ], [ 325157.247207493986934, 4314898.978926881216466 ], [ 325116.885885857336689, 4314831.640129926614463 ], [ 325106.462984619720373, 4314817.586474481970072 ], [ 325132.936650641204324, 4314761.612610526382923 ], [ 325159.385293217957951, 4314687.693606438115239 ], [ 325178.461248954758048, 4314611.538122246973217 ], [ 325189.980805969971698, 4314533.879576898179948 ], [ 325193.833024632185698, 4314455.465864634141326 ], [ 325191.139470787718892, 4314400.63731655664742 ], [ 325222.137599961424712, 4314434.838481665588915 ], [ 325280.308397579705343, 4314487.56141940690577 ], [ 325343.366838494956028, 4314534.32874655816704 ], [ 325410.705635449849069, 4314574.690068195573986 ], [ 325481.67627901857486, 4314608.25668272562325 ], [ 325555.595283107075375, 4314634.705325302667916 ], [ 325631.750767297751736, 4314653.781281039118767 ], [ 325709.409312647010665, 4314665.300838054157794 ], [ 325787.823024910641834, 4314669.153056716546416 ], [ 325866.236737174273003, 4314665.300838054157794 ], [ 325943.895282523531932, 4314653.781281039118767 ], [ 325976.961220552911982, 4314645.498694736510515 ], [ 326002.848603949416429, 4314668.961651391349733 ], [ 326065.907044864667114, 4314715.728978542611003 ], [ 326133.245841819560155, 4314756.090300180017948 ], [ 326204.216485388285946, 4314789.656914710067213 ], [ 326278.135489476786461, 4314816.105557287111878 ], [ 326354.290973667462822, 4314835.181513023562729 ], [ 326431.949519016721752, 4314846.701070038601756 ], [ 326510.36323128035292, 4314850.553288700990379 ], [ 326588.776943543984089, 4314846.701070038601756 ], [ 326666.435488893243019, 4314835.181513023562729 ], [ 326742.59097308391938, 4314816.105557287111878 ], [ 326816.509977172419894, 4314789.656914710067213 ], [ 326887.480620741145685, 4314756.090300180017948 ], [ 326954.819417696038727, 4314715.728978542611003 ], [ 327017.877858611289412, 4314668.961651391349733 ], [ 327076.048656229570042, 4314616.238713650032878 ], [ 327128.771593970537651, 4314558.06791603192687 ], [ 327175.538921122380998, 4314495.009475116617978 ], [ 327215.900242759031244, 4314427.670678162015975 ], [ 327249.466857289371546, 4314356.700034593231976 ], [ 327275.915499866125174, 4314282.781030504964292 ], [ 327294.991455602925271, 4314206.625546313822269 ], [ 327306.511012618138921, 4314128.967000965029001 ], [ 327310.36323128035292, 4314050.553288700990379 ], [ 327306.511012618138921, 4313972.139576436951756 ], [ 327294.991455602925271, 4313894.481031088158488 ], [ 327275.915499866125174, 4313818.325546897016466 ], [ 327249.466857289371546, 4313744.406542808748782 ], [ 327215.900242759031244, 4313673.435899239964783 ], [ 327175.538921122380998, 4313606.09710228536278 ], [ 327128.771593970537651, 4313543.038661370053887 ], [ 327076.048656229570042, 4313484.86786375194788 ], [ 327017.877858611289412, 4313432.144926010631025 ], [ 326954.819417696038727, 4313385.377598859369755 ], [ 326887.480620741145685, 4313345.01627722196281 ], [ 326816.509977172419894, 4313311.449662691913545 ], [ 326742.59097308391938, 4313285.001020114868879 ], [ 326666.435488893243019, 4313265.925064378418028 ], [ 326588.776943543984089, 4313254.405507363379002 ], [ 326510.36323128035292, 4313250.553288700990379 ], [ 326431.949519016721752, 4313254.405507363379002 ], [ 326354.290973667462822, 4313265.925064378418028 ], [ 326321.225035638082772, 4313274.20765068102628 ], [ 326295.337652241578326, 4313250.744694026187062 ], [ 326232.279211326327641, 4313203.977366874925792 ], [ 326164.940414371434599, 4313163.616045237518847 ], [ 326093.969770802708808, 4313130.049430707469583 ], [ 326020.050766714208294, 4313103.600788130424917 ], [ 325943.895282523531932, 4313084.524832393974066 ], [ 325866.236737174273003, 4313073.005275378935039 ], [ 325787.823024910641834, 4313069.153056716546416 ], [ 325709.409312647010665, 4313073.005275378935039 ], [ 325631.750767297751736, 4313084.524832393974066 ], [ 325555.595283107075375, 4313103.600788130424917 ], [ 325481.67627901857486, 4313130.049430707469583 ], [ 325410.705635449849069, 4313163.616045237518847 ], [ 325343.366838494956028, 4313203.977366874925792 ], [ 325280.308397579705343, 4313250.744694026187062 ], [ 325222.137599961424712, 4313303.467631767503917 ], [ 325169.414662220457103, 4313361.638429385609925 ], [ 325122.647335068613756, 4313424.696870300918818 ], [ 325082.286013431963511, 4313492.035667255520821 ], [ 325048.719398901623208, 4313563.006310824304819 ], [ 325022.270756324869581, 4313636.925314912572503 ], [ 325003.194800588069484, 4313713.080799103714526 ], [ 324991.675243572855834, 4313790.739344452507794 ], [ 324987.823024910641834, 4313869.153056716546416 ], [ 324990.51657875510864, 4313923.981604794040322 ], [ 324959.51844958140282, 4313889.780439685098827 ], [ 324901.347651963122189, 4313837.057501943781972 ], [ 324838.289211047871504, 4313790.290174792520702 ], [ 324770.950414092978463, 4313749.928853155113757 ], [ 324699.979770524252672, 4313716.362238625064492 ], [ 324626.060766435752157, 4313689.913596048019826 ], [ 324549.905282245075796, 4313670.837640311568975 ], [ 324472.246736895816866, 4313659.318083296529949 ], [ 324393.833024632185698, 4313655.465864634141326 ], [ 324315.419312368554529, 4313659.318083296529949 ], [ 324237.760767019295599, 4313670.837640311568975 ], [ 324161.605282828619238, 4313689.913596048019826 ], [ 324087.686278740118723, 4313716.362238625064492 ], [ 324016.715635171392933, 4313749.928853155113757 ], [ 323949.376838216499891, 4313790.290174792520702 ], [ 323886.318397301249206, 4313837.057501943781972 ], [ 323885.373787365970202, 4313837.913646484725177 ], [ 323859.168824164837133, 4313802.580343849025667 ], [ 323806.445886423869524, 4313744.409546230919659 ], [ 323748.275088805588894, 4313691.686608489602804 ], [ 323685.216647890338209, 4313644.919281338341534 ], [ 323617.877850935445167, 4313604.557959700934589 ], [ 323546.907207366719376, 4313570.991345170885324 ], [ 323472.988203278218862, 4313544.542702593840659 ], [ 323396.8327190875425, 4313525.466746857389808 ], [ 323319.174173738283571, 4313513.947189842350781 ], [ 323240.760461474652402, 4313510.094971179962158 ], [ 323162.346749211021233, 4313513.947189842350781 ], [ 323084.688203861762304, 4313525.466746857389808 ], [ 323008.532719671085943, 4313544.542702593840659 ], [ 322934.613715582585428, 4313570.991345170885324 ], [ 322863.643072013859637, 4313604.557959700934589 ], [ 322796.304275058966596, 4313644.919281338341534 ], [ 322733.245834143715911, 4313691.686608489602804 ], [ 322723.505524001200683, 4313700.514711013063788 ], [ 322676.982801423582714, 4313666.011108399368823 ], [ 322609.644004468689673, 4313625.649786761961877 ] ] ], [ [ [ 319249.846482447872404, 4313601.75955172162503 ], [ 319171.432770184241235, 4313605.611770384013653 ], [ 319093.774224834982306, 4313617.13132739905268 ], [ 319017.618740644305944, 4313636.207283135503531 ], [ 318943.69973655580543, 4313662.655925712548196 ], [ 318872.729092987079639, 4313696.222540242597461 ], [ 318805.390296032186598, 4313736.583861880004406 ], [ 318742.331855116935913, 4313783.351189031265676 ], [ 318684.161057498655282, 4313836.074126772582531 ], [ 318631.438119757687673, 4313894.244924390688539 ], [ 318584.670792605844326, 4313957.303365305997431 ], [ 318544.309470969194081, 4314024.642162260599434 ], [ 318510.742856438853778, 4314095.612805829383433 ], [ 318484.29421386210015, 4314169.531809917651117 ], [ 318465.218258125300054, 4314245.687294108793139 ], [ 318453.698701110086404, 4314323.345839457586408 ], [ 318449.846482447872404, 4314401.75955172162503 ], [ 318453.698701110086404, 4314480.173263985663652 ], [ 318465.218258125300054, 4314557.831809334456921 ], [ 318484.29421386210015, 4314633.987293525598943 ], [ 318510.742856438853778, 4314707.906297613866627 ], [ 318544.309470969194081, 4314778.876941182650626 ], [ 318584.670792605844326, 4314846.215738137252629 ], [ 318631.438119757687673, 4314909.274179052561522 ], [ 318684.161057498655282, 4314967.444976670667529 ], [ 318742.331855116935913, 4315020.167914411984384 ], [ 318805.390296032186598, 4315066.935241563245654 ], [ 318872.729092987079639, 4315107.296563200652599 ], [ 318943.69973655580543, 4315140.863177730701864 ], [ 318976.219466120819561, 4315152.498923025093973 ], [ 318992.846459809399676, 4315162.464759518392384 ], [ 319063.817103378125466, 4315196.031374048441648 ], [ 319137.736107466625981, 4315222.480016625486314 ], [ 319213.891591657302342, 4315241.555972361937165 ], [ 319291.550137006561272, 4315253.075529376976192 ], [ 319369.963849270192441, 4315256.927748039364815 ], [ 319448.377561533823609, 4315253.075529376976192 ], [ 319526.036106883082539, 4315241.555972361937165 ], [ 319602.1915910737589, 4315222.480016625486314 ], [ 319676.110595162259415, 4315196.031374048441648 ], [ 319747.081238730985206, 4315162.464759518392384 ], [ 319814.420035685878247, 4315122.103437880985439 ], [ 319877.478476601128932, 4315075.336110729724169 ], [ 319935.649274219409563, 4315022.613172988407314 ], [ 319988.372211960377172, 4314964.442375370301306 ], [ 320035.139539112220518, 4314901.383934454992414 ], [ 320075.500860748870764, 4314834.04513750039041 ], [ 320109.067475279211067, 4314763.074493931606412 ], [ 320135.516117855964694, 4314689.155489843338728 ], [ 320154.592073592764791, 4314613.000005652196705 ], [ 320166.111630607978441, 4314535.341460303403437 ], [ 320169.963849270192441, 4314456.927748039364815 ], [ 320166.111630607978441, 4314378.514035775326192 ], [ 320154.592073592764791, 4314300.855490426532924 ], [ 320135.516117855964694, 4314224.700006235390902 ], [ 320109.067475279211067, 4314150.781002147123218 ], [ 320075.500860748870764, 4314079.810358578339219 ], [ 320035.139539112220518, 4314012.471561623737216 ], [ 319988.372211960377172, 4313949.413120708428323 ], [ 319935.649274219409563, 4313891.242323090322316 ], [ 319877.478476601128932, 4313838.519385349005461 ], [ 319814.420035685878247, 4313791.752058197744191 ], [ 319747.081238730985206, 4313751.390736560337245 ], [ 319676.110595162259415, 4313717.824122030287981 ], [ 319643.590865597245283, 4313706.188376735895872 ], [ 319626.963871908665169, 4313696.222540242597461 ], [ 319555.993228339939378, 4313662.655925712548196 ], [ 319482.074224251438864, 4313636.207283135503531 ], [ 319405.918740060762502, 4313617.13132739905268 ], [ 319328.260194711503573, 4313605.611770384013653 ], [ 319249.846482447872404, 4313601.75955172162503 ] ] ], [ [ [ 331433.53786164522171, 4304936.97134436480701 ], [ 331370.479420729971025, 4304890.20401721354574 ], [ 331303.140623775077984, 4304849.842695576138794 ], [ 331232.169980206352193, 4304816.27608104608953 ], [ 331158.250976117851678, 4304789.827438469044864 ], [ 331082.095491927175317, 4304770.751482732594013 ], [ 331004.436946577916387, 4304759.231925717554986 ], [ 330926.023234314285219, 4304755.379707055166364 ], [ 330847.60952205065405, 4304759.231925717554986 ], [ 330769.95097670139512, 4304770.751482732594013 ], [ 330693.795492510718759, 4304789.827438469044864 ], [ 330619.876488422218245, 4304816.27608104608953 ], [ 330548.905844853492454, 4304849.842695576138794 ], [ 330481.567047898599412, 4304890.20401721354574 ], [ 330418.508606983348727, 4304936.97134436480701 ], [ 330360.337809365068097, 4304989.694282106123865 ], [ 330307.614871624100488, 4305047.865079724229872 ], [ 330260.847544472257141, 4305110.923520639538765 ], [ 330220.486222835606895, 4305178.262317594140768 ], [ 330186.919608305266593, 4305249.232961162924767 ], [ 330160.470965728512965, 4305323.151965251192451 ], [ 330141.395009991712868, 4305399.307449442334473 ], [ 330129.875452976499218, 4305476.965994791127741 ], [ 330126.023234314285219, 4305555.379707055166364 ], [ 330129.875452976499218, 4305633.793419319204986 ], [ 330141.395009991712868, 4305711.451964667998254 ], [ 330160.470965728512965, 4305787.607448859140277 ], [ 330186.919608305266593, 4305861.526452947407961 ], [ 330220.486222835606895, 4305932.497096516191959 ], [ 330260.847544472257141, 4305999.835893470793962 ], [ 330307.614871624100488, 4306062.894334386102855 ], [ 330360.337809365068097, 4306121.065132004208863 ], [ 330418.508606983348727, 4306173.788069745525718 ], [ 330481.567047898599412, 4306220.555396896786988 ], [ 330548.905844853492454, 4306260.916718534193933 ], [ 330619.876488422218245, 4306294.483333064243197 ], [ 330693.795492510718759, 4306320.931975641287863 ], [ 330769.95097670139512, 4306340.007931377738714 ], [ 330847.60952205065405, 4306351.527488392777741 ], [ 330926.023234314285219, 4306355.379707055166364 ], [ 331004.436946577916387, 4306351.527488392777741 ], [ 331082.095491927175317, 4306340.007931377738714 ], [ 331158.250976117851678, 4306320.931975641287863 ], [ 331232.169980206352193, 4306294.483333064243197 ], [ 331303.140623775077984, 4306260.916718534193933 ], [ 331370.479420729971025, 4306220.555396896786988 ], [ 331433.53786164522171, 4306173.788069745525718 ], [ 331491.708659263502341, 4306121.065132004208863 ], [ 331544.43159700446995, 4306062.894334386102855 ], [ 331591.198924156313296, 4305999.835893470793962 ], [ 331631.560245792963542, 4305932.497096516191959 ], [ 331665.126860323303845, 4305861.526452947407961 ], [ 331691.575502900057472, 4305787.607448859140277 ], [ 331710.651458636857569, 4305711.451964667998254 ], [ 331722.171015652071219, 4305633.793419319204986 ], [ 331726.023234314285219, 4305555.379707055166364 ], [ 331722.171015652071219, 4305476.965994791127741 ], [ 331710.651458636857569, 4305399.307449442334473 ], [ 331691.575502900057472, 4305323.151965251192451 ], [ 331665.126860323303845, 4305249.232961162924767 ], [ 331631.560245792963542, 4305178.262317594140768 ], [ 331591.198924156313296, 4305110.923520639538765 ], [ 331544.43159700446995, 4305047.865079724229872 ], [ 331491.708659263502341, 4304989.694282106123865 ], [ 331433.53786164522171, 4304936.97134436480701 ] ] ], [ [ [ 330507.710617181204725, 4306259.144968693144619 ], [ 330440.371820226311684, 4306218.783647055737674 ], [ 330369.401176657585893, 4306185.21703252568841 ], [ 330295.482172569085378, 4306158.768389948643744 ], [ 330219.326688378409017, 4306139.692434212192893 ], [ 330141.668143029150087, 4306128.172877197153866 ], [ 330063.254430765518919, 4306124.320658534765244 ], [ 329984.84071850188775, 4306128.172877197153866 ], [ 329907.18217315262882, 4306139.692434212192893 ], [ 329831.026688961952459, 4306158.768389948643744 ], [ 329757.107684873451944, 4306185.21703252568841 ], [ 329686.137041304726154, 4306218.783647055737674 ], [ 329618.798244349833112, 4306259.144968693144619 ], [ 329555.739803434582427, 4306305.91229584440589 ], [ 329497.569005816301797, 4306358.635233585722744 ], [ 329444.846068075334188, 4306416.806031203828752 ], [ 329398.078740923490841, 4306479.864472119137645 ], [ 329357.717419286840595, 4306547.203269073739648 ], [ 329324.150804756500293, 4306618.173912642523646 ], [ 329297.702162179746665, 4306692.09291673079133 ], [ 329278.626206442946568, 4306768.248400921933353 ], [ 329267.106649427732918, 4306845.906946270726621 ], [ 329263.254430765518919, 4306924.320658534765244 ], [ 329267.106649427732918, 4307002.734370798803866 ], [ 329278.626206442946568, 4307080.392916147597134 ], [ 329297.702162179746665, 4307156.548400338739157 ], [ 329324.150804756500293, 4307230.467404427006841 ], [ 329357.717419286840595, 4307301.438047995790839 ], [ 329398.078740923490841, 4307368.776844950392842 ], [ 329420.53628487145761, 4307399.057337644509971 ], [ 329424.451074590964708, 4307409.998441954143345 ], [ 329458.017689121305011, 4307480.969085522927344 ], [ 329498.379010757955257, 4307548.307882477529347 ], [ 329545.146337909798604, 4307611.36632339283824 ], [ 329597.869275650766212, 4307669.537121010944247 ], [ 329656.040073269046843, 4307722.260058752261102 ], [ 329719.098514184297528, 4307769.027385903522372 ], [ 329786.43731113919057, 4307809.388707540929317 ], [ 329857.40795470791636, 4307842.955322070978582 ], [ 329931.326958796416875, 4307869.403964648023248 ], [ 330007.482442987093236, 4307888.479920384474099 ], [ 330085.140988336352166, 4307899.999477399513125 ], [ 330163.554700599983335, 4307903.851696061901748 ], [ 330241.968412863614503, 4307899.999477399513125 ], [ 330319.626958212873433, 4307888.479920384474099 ], [ 330395.782442403549794, 4307869.403964648023248 ], [ 330469.701446492050309, 4307842.955322070978582 ], [ 330540.6720900607761, 4307809.388707540929317 ], [ 330608.010887015669141, 4307769.027385903522372 ], [ 330671.069327930919826, 4307722.260058752261102 ], [ 330729.240125549200457, 4307669.537121010944247 ], [ 330781.963063290168066, 4307611.36632339283824 ], [ 330828.730390442011412, 4307548.307882477529347 ], [ 330869.091712078661658, 4307480.969085522927344 ], [ 330902.658326609001961, 4307409.998441954143345 ], [ 330929.106969185755588, 4307336.079437865875661 ], [ 330948.182924922555685, 4307259.923953674733639 ], [ 330959.702481937769335, 4307182.265408325940371 ], [ 330963.554700599983335, 4307103.851696061901748 ], [ 330959.702481937769335, 4307025.437983797863126 ], [ 330948.182924922555685, 4306947.779438449069858 ], [ 330929.106969185755588, 4306871.623954257927835 ], [ 330902.658326609001961, 4306797.704950169660151 ], [ 330869.091712078661658, 4306726.734306600876153 ], [ 330828.730390442011412, 4306659.395509646274149 ], [ 330806.272846494044643, 4306629.115016952157021 ], [ 330802.358056774537545, 4306618.173912642523646 ], [ 330768.791442244197242, 4306547.203269073739648 ], [ 330728.430120607546996, 4306479.864472119137645 ], [ 330681.66279345570365, 4306416.806031203828752 ], [ 330628.939855714736041, 4306358.635233585722744 ], [ 330570.76905809645541, 4306305.91229584440589 ], [ 330507.710617181204725, 4306259.144968693144619 ] ] ], [ [ [ 331151.670185893075541, 4307774.213040112517774 ], [ 331093.49938827479491, 4307826.935977853834629 ], [ 331040.776450533827301, 4307885.106775471940637 ], [ 330994.009123381983954, 4307948.165216387249529 ], [ 330953.647801745333709, 4308015.504013341851532 ], [ 330920.081187214993406, 4308086.474656910635531 ], [ 330893.632544638239779, 4308160.393660998903215 ], [ 330874.556588901439682, 4308236.549145190045238 ], [ 330863.037031886226032, 4308314.207690538838506 ], [ 330859.184813224012032, 4308392.621402802877128 ], [ 330863.037031886226032, 4308471.035115066915751 ], [ 330874.556588901439682, 4308548.693660415709019 ], [ 330893.632544638239779, 4308624.849144606851041 ], [ 330920.081187214993406, 4308698.768148695118725 ], [ 330953.647801745333709, 4308769.738792263902724 ], [ 330994.009123381983954, 4308837.077589218504727 ], [ 331040.776450533827301, 4308900.13603013381362 ], [ 331093.49938827479491, 4308958.306827751919627 ], [ 331151.670185893075541, 4309011.029765493236482 ], [ 331214.728626808326226, 4309057.797092644497752 ], [ 331282.067423763219267, 4309098.158414281904697 ], [ 331353.038067331945058, 4309131.725028811953962 ], [ 331426.957071420445573, 4309158.173671388998628 ], [ 331503.112555611121934, 4309177.249627125449479 ], [ 331580.771100960380863, 4309188.769184140488505 ], [ 331607.897130835684948, 4309190.101800534874201 ], [ 331627.847378232632764, 4309193.061140184290707 ], [ 331706.261090496263932, 4309196.91335884667933 ], [ 331784.674802759895101, 4309193.061140184290707 ], [ 331862.333348109154031, 4309181.54158316925168 ], [ 331938.488832299830392, 4309162.465627432800829 ], [ 332012.407836388330907, 4309136.016984855756164 ], [ 332083.378479957056697, 4309102.450370325706899 ], [ 332150.717276911949739, 4309062.089048688299954 ], [ 332213.775717827200424, 4309015.321721537038684 ], [ 332271.946515445481054, 4308962.598783795721829 ], [ 332324.669453186448663, 4308904.427986177615821 ], [ 332371.43678033829201, 4308841.369545262306929 ], [ 332411.798101974942256, 4308774.030748307704926 ], [ 332445.364716505282559, 4308703.060104738920927 ], [ 332471.813359082036186, 4308629.141100650653243 ], [ 332490.889314818836283, 4308552.98561645951122 ], [ 332502.408871834049933, 4308475.327071110717952 ], [ 332506.261090496263932, 4308396.91335884667933 ], [ 332502.408871834049933, 4308318.499646582640707 ], [ 332490.889314818836283, 4308240.841101233847439 ], [ 332471.813359082036186, 4308164.685617042705417 ], [ 332445.364716505282559, 4308090.766612954437733 ], [ 332411.798101974942256, 4308019.795969385653734 ], [ 332371.43678033829201, 4307952.457172431051731 ], [ 332324.669453186448663, 4307889.398731515742838 ], [ 332271.946515445481054, 4307831.227933897636831 ], [ 332213.775717827200424, 4307778.504996156319976 ], [ 332150.717276911949739, 4307731.737669005058706 ], [ 332083.378479957056697, 4307691.376347367651761 ], [ 332012.407836388330907, 4307657.809732837602496 ], [ 331938.488832299830392, 4307631.36109026055783 ], [ 331862.333348109154031, 4307612.285134524106979 ], [ 331784.674802759895101, 4307600.765577509067953 ], [ 331757.548772884591017, 4307599.432961114682257 ], [ 331737.598525487643201, 4307596.473621465265751 ], [ 331659.184813224012032, 4307592.621402802877128 ], [ 331580.771100960380863, 4307596.473621465265751 ], [ 331503.112555611121934, 4307607.993178480304778 ], [ 331426.957071420445573, 4307627.069134216755629 ], [ 331353.038067331945058, 4307653.517776793800294 ], [ 331282.067423763219267, 4307687.084391323849559 ], [ 331214.728626808326226, 4307727.445712961256504 ], [ 331151.670185893075541, 4307774.213040112517774 ] ] ], [ [ [ 331255.867140275018755, 4309389.521418763324618 ], [ 331197.696342656738125, 4309336.798481022007763 ], [ 331134.63790174148744, 4309290.031153870746493 ], [ 331067.299104786594398, 4309249.669832233339548 ], [ 330996.328461217868607, 4309216.103217703290284 ], [ 330922.409457129368093, 4309189.654575126245618 ], [ 330846.253972938691732, 4309170.578619389794767 ], [ 330768.595427589432802, 4309159.05906237475574 ], [ 330690.181715325801633, 4309155.206843712367117 ], [ 330611.768003062170465, 4309159.05906237475574 ], [ 330534.109457712911535, 4309170.578619389794767 ], [ 330457.953973522235174, 4309189.654575126245618 ], [ 330384.034969433734659, 4309216.103217703290284 ], [ 330313.064325865008868, 4309249.669832233339548 ], [ 330245.725528910115827, 4309290.031153870746493 ], [ 330182.667087994865142, 4309336.798481022007763 ], [ 330124.496290376584511, 4309389.521418763324618 ], [ 330071.773352635616902, 4309447.692216381430626 ], [ 330025.006025483773556, 4309510.750657296739519 ], [ 329984.64470384712331, 4309578.089454251341522 ], [ 329951.078089316783007, 4309649.06009782012552 ], [ 329924.62944674002938, 4309722.979101908393204 ], [ 329905.553491003229283, 4309799.134586099535227 ], [ 329894.033933988015633, 4309876.793131448328495 ], [ 329890.181715325801633, 4309955.206843712367117 ], [ 329894.033933988015633, 4310033.62055597640574 ], [ 329905.553491003229283, 4310111.279101325199008 ], [ 329924.62944674002938, 4310187.434585516341031 ], [ 329951.078089316783007, 4310261.353589604608715 ], [ 329984.64470384712331, 4310332.324233173392713 ], [ 330025.006025483773556, 4310399.663030127994716 ], [ 330071.773352635616902, 4310462.721471043303609 ], [ 330124.496290376584511, 4310520.892268661409616 ], [ 330182.667087994865142, 4310573.615206402726471 ], [ 330245.725528910115827, 4310620.382533553987741 ], [ 330313.064325865008868, 4310660.743855191394687 ], [ 330384.034969433734659, 4310694.310469721443951 ], [ 330457.953973522235174, 4310720.759112298488617 ], [ 330534.109457712911535, 4310739.835068034939468 ], [ 330611.768003062170465, 4310751.354625049978495 ], [ 330690.181715325801633, 4310755.206843712367117 ], [ 330768.595427589432802, 4310751.354625049978495 ], [ 330846.253972938691732, 4310739.835068034939468 ], [ 330922.409457129368093, 4310720.759112298488617 ], [ 330996.328461217868607, 4310694.310469721443951 ], [ 331067.299104786594398, 4310660.743855191394687 ], [ 331134.63790174148744, 4310620.382533553987741 ], [ 331197.696342656738125, 4310573.615206402726471 ], [ 331255.867140275018755, 4310520.892268661409616 ], [ 331308.590078015986364, 4310462.721471043303609 ], [ 331355.357405167829711, 4310399.663030127994716 ], [ 331395.718726804479957, 4310332.324233173392713 ], [ 331429.285341334820259, 4310261.353589604608715 ], [ 331455.733983911573887, 4310187.434585516341031 ], [ 331474.809939648373984, 4310111.279101325199008 ], [ 331486.329496663587634, 4310033.62055597640574 ], [ 331490.181715325801633, 4309955.206843712367117 ], [ 331486.329496663587634, 4309876.793131448328495 ], [ 331474.809939648373984, 4309799.134586099535227 ], [ 331455.733983911573887, 4309722.979101908393204 ], [ 331429.285341334820259, 4309649.06009782012552 ], [ 331395.718726804479957, 4309578.089454251341522 ], [ 331355.357405167829711, 4309510.750657296739519 ], [ 331308.590078015986364, 4309447.692216381430626 ], [ 331255.867140275018755, 4309389.521418763324618 ] ] ] ] } }
]
}
